;country_id;country_name;geonameId;geoname_json;fcode
0;1;Chile;3895114;"{""adminCode1"": ""00"", ""lng"": ""-71"", ""geonameId"": 3895114, ""toponymName"": ""Republic of Chile"", ""countryId"": ""3895114"", ""fcl"": ""A"", ""population"": 18729160, ""countryCode"": ""CL"", ""name"": ""Chile"", ""fclName"": ""country, state, region,..."", ""countryName"": ""Chile"", ""fcodeName"": ""independent political entity"", ""adminName1"": """", ""lat"": ""-30"", ""fcode"": ""PCLI""}";PCLI
1;141;South Africa;953987;"{""adminCode1"": ""00"", ""lng"": ""24"", ""geonameId"": 953987, ""toponymName"": ""South Africa"", ""countryId"": ""953987"", ""fcl"": ""A"", ""population"": 57779622, ""countryCode"": ""ZA"", ""name"": ""South Africa"", ""fclName"": ""country, state, region,..."", ""countryName"": ""South Africa"", ""fcodeName"": ""independent political entity"", ""adminName1"": """", ""lat"": ""-29"", ""fcode"": ""PCLI""}";PCLI
2;212;Chad;2434508;"{""adminCode1"": ""00"", ""lng"": ""19"", ""geonameId"": 2434508, ""toponymName"": ""Republic of Chad"", ""countryId"": ""2434508"", ""fcl"": ""A"", ""population"": 15477751, ""countryCode"": ""TD"", ""name"": ""Chad"", ""fclName"": ""country, state, region,..."", ""countryName"": ""Chad"", ""fcodeName"": ""independent political entity"", ""adminName1"": """", ""lat"": ""15"", ""fcode"": ""PCLI""}";PCLI
3;63;Mexico;3996063;"{""adminCode1"": ""00"", ""lng"": ""-102"", ""geonameId"": 3996063, ""toponymName"": ""Mexico"", ""countryId"": ""3996063"", ""fcl"": ""A"", ""population"": 126190788, ""countryCode"": ""MX"", ""name"": ""Mexico"", ""fclName"": ""country, state, region,..."", ""countryName"": ""Mexico"", ""fcodeName"": ""independent political entity"", ""adminName1"": """", ""lat"": ""23"", ""fcode"": ""PCLI""}";PCLI
4;106;The former Yugoslav Republic of Macedonia;718075;"{""adminCode1"": ""00"", ""lng"": ""21.75"", ""geonameId"": 718075, ""toponymName"": ""North Macedonia"", ""countryId"": ""718075"", ""fcl"": ""A"", ""population"": 2082958, ""countryCode"": ""MK"", ""name"": ""North Macedonia"", ""fclName"": ""country, state, region,..."", ""countryName"": ""North Macedonia"", ""fcodeName"": ""independent political entity"", ""adminName1"": """", ""lat"": ""41.66667"", ""fcode"": ""PCLI""}";PCLI
5;145;Russian Federation;2017370;"{""adminCode1"": ""00"", ""lng"": ""100"", ""geonameId"": 2017370, ""toponymName"": ""Russian Federation"", ""countryId"": ""2017370"", ""fcl"": ""A"", ""population"": 144478050, ""countryCode"": ""RU"", ""name"": ""Russia"", ""fclName"": ""country, state, region,..."", ""countryName"": ""Russia"", ""fcodeName"": ""independent political entity"", ""adminName1"": """", ""lat"": ""60"", ""fcode"": ""PCLI""}";PCLI
6;183;Indonesia;1643084;"{""adminCode1"": ""00"", ""lng"": ""120"", ""geonameId"": 1643084, ""toponymName"": ""Republic of Indonesia"", ""countryId"": ""1643084"", ""fcl"": ""A"", ""population"": 267663435, ""countryCode"": ""ID"", ""name"": ""Indonesia"", ""fclName"": ""country, state, region,..."", ""countryName"": ""Indonesia"", ""fcodeName"": ""independent political entity"", ""adminName1"": """", ""lat"": ""-5"", ""fcode"": ""PCLI""}";PCLI
7;61;Central African Republic;239880;"{""adminCode1"": ""00"", ""lng"": ""21"", ""geonameId"": 239880, ""toponymName"": ""Central African Republic"", ""countryId"": ""239880"", ""fcl"": ""A"", ""population"": 4666377, ""countryCode"": ""CF"", ""name"": ""Central African Republic"", ""fclName"": ""country, state, region,..."", ""countryName"": ""Central African Republic"", ""fcodeName"": ""independent political entity"", ""adminName1"": """", ""lat"": ""7"", ""fcode"": ""PCLI""}";PCLI
8;188;Kazakhstan;1522867;"{""adminCode1"": ""00"", ""lng"": ""68"", ""geonameId"": 1522867, ""toponymName"": ""Republic of Kazakhstan"", ""countryId"": ""1522867"", ""fcl"": ""A"", ""population"": 18276499, ""countryCode"": ""KZ"", ""name"": ""Kazakhstan"", ""fclName"": ""country, state, region,..."", ""countryName"": ""Kazakhstan"", ""fcodeName"": ""independent political entity"", ""adminName1"": """", ""lat"": ""48"", ""fcode"": ""PCLI""}";PCLI
9;27;Tajikistan;1220409;"{""adminCode1"": ""00"", ""lng"": ""71"", ""geonameId"": 1220409, ""toponymName"": ""Republic of Tajikistan"", ""countryId"": ""1220409"", ""fcl"": ""A"", ""population"": 9100837, ""countryCode"": ""TJ"", ""name"": ""Tajikistan"", ""fclName"": ""country, state, region,..."", ""countryName"": ""Tajikistan"", ""fcodeName"": ""independent political entity"", ""adminName1"": """", ""lat"": ""39"", ""fcode"": ""PCLI""}";PCLI
10;205;Falkland Islands (Malvinas);3474414;"{""adminCode1"": ""00"", ""lng"": ""-59.16667"", ""geonameId"": 3474414, ""toponymName"": ""Falkland Islands"", ""countryId"": ""3474414"", ""fcl"": ""A"", ""population"": 2638, ""countryCode"": ""FK"", ""name"": ""Falkland Islands"", ""fclName"": ""country, state, region,..."", ""countryName"": ""Falkland Islands"", ""fcodeName"": ""dependent political entity"", ""adminName1"": """", ""lat"": ""-51.75"", ""fcode"": ""PCLD""}";PCLD
11;7;Gaza Strip;281133;"{""adminCode1"": ""GZ"", ""lng"": ""34.46672"", ""geonameId"": 281133, ""toponymName"": ""Gaza"", ""countryId"": ""6254930"", ""fcl"": ""P"", ""population"": 410000, ""countryCode"": ""PS"", ""name"": ""Gaza"", ""fclName"": ""city, village,..."", ""adminCodes1"": {}, ""countryName"": ""Palestine"", ""fcodeName"": ""seat of a first-order administrative division"", ""adminName1"": ""Gaza Strip"", ""lat"": ""31.50161"", ""fcode"": ""PPLA""}";PPLA
12;108;Bolivia;3923057;"{""adminCode1"": ""00"", ""lng"": ""-65"", ""geonameId"": 3923057, ""toponymName"": ""Plurinational State of Bolivia"", ""countryId"": ""3923057"", ""fcl"": ""A"", ""population"": 11353142, ""countryCode"": ""BO"", ""name"": ""Bolivia"", ""fclName"": ""country, state, region,..."", ""countryName"": ""Bolivia"", ""fcodeName"": ""independent political entity"", ""adminName1"": """", ""lat"": ""-17"", ""fcode"": ""PCLI""}";PCLI
13;29;Sudan;366755;"{""adminCode1"": ""00"", ""lng"": ""30"", ""geonameId"": 366755, ""toponymName"": ""Republic of the Sudan"", ""countryId"": ""366755"", ""fcl"": ""A"", ""population"": 41801533, ""countryCode"": ""SD"", ""name"": ""Sudan"", ""fclName"": ""country, state, region,..."", ""countryName"": ""Sudan"", ""fcodeName"": ""independent political entity"", ""adminName1"": """", ""lat"": ""16"", ""fcode"": ""PCLI""}";PCLI
14;25;Cyprus;146669;"{""adminCode1"": ""00"", ""lng"": ""33"", ""geonameId"": 146669, ""toponymName"": ""Republic of Cyprus"", ""countryId"": ""146669"", ""fcl"": ""A"", ""population"": 1189265, ""countryCode"": ""CY"", ""name"": ""Cyprus"", ""fclName"": ""country, state, region,..."", ""countryName"": ""Cyprus"", ""fcodeName"": ""independent political entity"", ""adminName1"": """", ""lat"": ""35"", ""fcode"": ""PCLI""}";PCLI
15;15;Cape Verde;3374766;"{""adminCode1"": ""00"", ""lng"": ""-24"", ""geonameId"": 3374766, ""toponymName"": ""Republic of Cabo Verde"", ""countryId"": ""3374766"", ""fcl"": ""A"", ""population"": 543767, ""countryCode"": ""CV"", ""name"": ""Cabo Verde"", ""fclName"": ""country, state, region,..."", ""countryName"": ""Cabo Verde"", ""fcodeName"": ""independent political entity"", ""adminName1"": """", ""lat"": ""16"", ""fcode"": ""PCLI""}";PCLI
16;85;Azerbaijan;587116;"{""adminCode1"": ""00"", ""lng"": ""47.5"", ""geonameId"": 587116, ""toponymName"": ""Republic of Azerbaijan"", ""countryId"": ""587116"", ""fcl"": ""A"", ""population"": 9942334, ""countryCode"": ""AZ"", ""name"": ""Azerbaijan"", ""fclName"": ""country, state, region,..."", ""countryName"": ""Azerbaijan"", ""fcodeName"": ""independent political entity"", ""adminName1"": """", ""lat"": ""40.5"", ""fcode"": ""PCLI""}";PCLI
17;165;Timor-Leste;1966436;"{""adminCode1"": ""00"", ""lng"": ""125.75"", ""geonameId"": 1966436, ""toponymName"": ""Democratic Republic of Timor-Leste"", ""countryId"": ""1966436"", ""fcl"": ""A"", ""population"": 1267972, ""countryCode"": ""TL"", ""name"": ""Timor-Leste"", ""fclName"": ""country, state, region,..."", ""countryName"": ""Timor-Leste"", ""fcodeName"": ""independent political entity"", ""adminName1"": """", ""lat"": ""-8.83333"", ""fcode"": ""PCLI""}";PCLI
18;128;Iran (Islamic Republic of);130758;"{""adminCode1"": ""00"", ""lng"": ""53"", ""geonameId"": 130758, ""toponymName"": ""Islamic Republic of Iran"", ""countryId"": ""130758"", ""fcl"": ""A"", ""population"": 81800269, ""countryCode"": ""IR"", ""name"": ""Iran"", ""fclName"": ""country, state, region,..."", ""countryName"": ""Iran"", ""fcodeName"": ""independent political entity"", ""adminName1"": """", ""lat"": ""32"", ""fcode"": ""PCLI""}";PCLI
19;21;Ilemi triangle;11886988;"{""lng"": ""35.33864"", ""geonameId"": 11886988, ""toponymName"": ""Ilemi Triangle"", ""countryId"": ""192950"", ""fcl"": ""L"", ""population"": 0, ""countryCode"": ""KE"", ""name"": ""Ilemi Triangle"", ""fclName"": ""parks,area, ..."", ""countryName"": ""Kenya"", ""fcodeName"": ""area"", ""adminName1"": """", ""lat"": ""5.18322"", ""fcode"": ""AREA""}";AREA
20;169;Suriname;3382998;"{""adminCode1"": ""00"", ""lng"": ""-56"", ""geonameId"": 3382998, ""toponymName"": ""Republic of Suriname"", ""countryId"": ""3382998"", ""fcl"": ""A"", ""population"": 575991, ""countryCode"": ""SR"", ""name"": ""Suriname"", ""fclName"": ""country, state, region,..."", ""countryName"": ""Suriname"", ""fcodeName"": ""independent political entity"", ""adminName1"": """", ""lat"": ""4"", ""fcode"": ""PCLI""}";PCLI
21;97;Jordan;248816;"{""adminCode1"": ""00"", ""lng"": ""36"", ""geonameId"": 248816, ""toponymName"": ""Hashemite Kingdom of Jordan"", ""countryId"": ""248816"", ""fcl"": ""A"", ""population"": 9956011, ""countryCode"": ""JO"", ""name"": ""Jordan"", ""fclName"": ""country, state, region,..."", ""countryName"": ""Jordan"", ""fcodeName"": ""independent political entity"", ""adminName1"": """", ""lat"": ""31"", ""fcode"": ""PCLI""}";PCLI
22;184;Trinidad and Tobago;3573591;"{""adminCode1"": ""00"", ""lng"": ""-61"", ""geonameId"": 3573591, ""toponymName"": ""Republic of Trinidad and Tobago"", ""countryId"": ""3573591"", ""fcl"": ""A"", ""population"": 1389858, ""countryCode"": ""TT"", ""name"": ""Trinidad and Tobago"", ""fclName"": ""country, state, region,..."", ""countryName"": ""Trinidad and Tobago"", ""fcodeName"": ""independent political entity"", ""adminName1"": """", ""lat"": ""11"", ""fcode"": ""PCLI""}";PCLI
23;149;Mauritius;934292;"{""adminCode1"": ""00"", ""lng"": ""57.58333"", ""geonameId"": 934292, ""toponymName"": ""Republic of Mauritius"", ""countryId"": ""934292"", ""fcl"": ""A"", ""population"": 1265303, ""countryCode"": ""MU"", ""name"": ""Mauritius"", ""fclName"": ""country, state, region,..."", ""countryName"": ""Mauritius"", ""fcodeName"": ""independent political entity"", ""adminName1"": """", ""lat"": ""-20.3"", ""fcode"": ""PCLI""}";PCLI
24;26;Greenland;3425505;"{""adminCode1"": ""00"", ""lng"": ""-40"", ""geonameId"": 3425505, ""toponymName"": ""Greenland"", ""countryId"": ""3425505"", ""fcl"": ""A"", ""population"": 56025, ""countryCode"": ""GL"", ""name"": ""Greenland"", ""fclName"": ""country, state, region,..."", ""countryName"": ""Greenland"", ""fcodeName"": ""dependent political entity"", ""adminName1"": """", ""lat"": ""72"", ""fcode"": ""PCLD""}";PCLD
25;62;China;1814991;"{""adminCode1"": ""00"", ""lng"": ""105"", ""geonameId"": 1814991, ""toponymName"": ""People\u2019s Republic of China"", ""countryId"": ""1814991"", ""fcl"": ""A"", ""population"": 1411778724, ""countryCode"": ""CN"", ""name"": ""China"", ""fclName"": ""country, state, region,..."", ""countryName"": ""China"", ""fcodeName"": ""independent political entity"", ""adminName1"": """", ""lat"": ""35"", ""fcode"": ""PCLI""}";PCLI
26;173;Norway;3144096;"{""adminCode1"": ""00"", ""lng"": ""10"", ""geonameId"": 3144096, ""toponymName"": ""Kingdom of Norway"", ""countryId"": ""3144096"", ""fcl"": ""A"", ""population"": 5314336, ""countryCode"": ""NO"", ""name"": ""Norway"", ""fclName"": ""country, state, region,..."", ""countryName"": ""Norway"", ""fcodeName"": ""independent political entity"", ""adminName1"": """", ""lat"": ""62"", ""fcode"": ""PCLI""}";PCLI
27;144;Republic of Korea;1835841;"{""adminCode1"": ""00"", ""lng"": ""127.75"", ""geonameId"": 1835841, ""toponymName"": ""Republic of Korea"", ""countryId"": ""1835841"", ""fcl"": ""A"", ""population"": 51635256, ""countryCode"": ""KR"", ""name"": ""South Korea"", ""fclName"": ""country, state, region,..."", ""countryName"": ""South Korea"", ""fcodeName"": ""independent political entity"", ""adminName1"": """", ""lat"": ""36.5"", ""fcode"": ""PCLI""}";PCLI
28;142;Congo;2260494;"{""adminCode1"": ""00"", ""lng"": ""15.5"", ""geonameId"": 2260494, ""toponymName"": ""Republic of the Congo"", ""countryId"": ""2260494"", ""fcl"": ""A"", ""population"": 5244363, ""countryCode"": ""CG"", ""name"": ""Congo Republic"", ""fclName"": ""country, state, region,..."", ""countryName"": ""Congo Republic"", ""fcodeName"": ""independent political entity"", ""adminName1"": """", ""lat"": ""-1"", ""fcode"": ""PCLI""}";PCLI
29;43;Djibouti;223817;"{""adminCode1"": ""07"", ""lng"": ""43.14503"", ""geonameId"": 223817, ""toponymName"": ""Djibouti"", ""countryId"": ""223816"", ""fcl"": ""P"", ""population"": 623891, ""countryCode"": ""DJ"", ""name"": ""Djibouti"", ""fclName"": ""city, village,..."", ""adminCodes1"": {""ISO3166_2"": ""DJ""}, ""countryName"": ""Djibouti"", ""fcodeName"": ""capital of a political entity"", ""adminName1"": ""Djibouti"", ""lat"": ""11.58901"", ""fcode"": ""PPLC""}";PPLC
30;196;Equatorial Guinea;2309096;"{""adminCode1"": ""00"", ""lng"": ""10.5"", ""geonameId"": 2309096, ""toponymName"": ""Republic of Equatorial Guinea"", ""countryId"": ""2309096"", ""fcl"": ""A"", ""population"": 1308974, ""countryCode"": ""GQ"", ""name"": ""Equatorial Guinea"", ""fclName"": ""country, state, region,..."", ""countryName"": ""Equatorial Guinea"", ""fcodeName"": ""independent political entity"", ""adminName1"": """", ""lat"": ""1.7"", ""fcode"": ""PCLI""}";PCLI
31;96;Eritrea;338010;"{""adminCode1"": ""00"", ""lng"": ""39"", ""geonameId"": 338010, ""toponymName"": ""State of Eritrea"", ""countryId"": ""338010"", ""fcl"": ""A"", ""population"": 0, ""countryCode"": ""ER"", ""name"": ""Eritrea"", ""fclName"": ""country, state, region,..."", ""countryName"": ""Eritrea"", ""fcodeName"": ""independent political entity"", ""adminName1"": """", ""lat"": ""15"", ""fcode"": ""PCLI""}";PCLI
32;117;Guatemala;3595528;"{""adminCode1"": ""00"", ""lng"": ""-90.25"", ""geonameId"": 3595528, ""toponymName"": ""Republic of Guatemala"", ""countryId"": ""3595528"", ""fcl"": ""A"", ""population"": 17247807, ""countryCode"": ""GT"", ""name"": ""Guatemala"", ""fclName"": ""country, state, region,..."", ""countryName"": ""Guatemala"", ""fcodeName"": ""independent political entity"", ""adminName1"": """", ""lat"": ""15.5"", ""fcode"": ""PCLI""}";PCLI
33;202;Bosnia and Herzegovina;3277605;"{""adminCode1"": ""00"", ""lng"": ""17.83333"", ""geonameId"": 3277605, ""toponymName"": ""Bosnia and Herzegovina"", ""countryId"": ""3277605"", ""fcl"": ""A"", ""population"": 3323929, ""countryCode"": ""BA"", ""name"": ""Bosnia and Herzegovina"", ""fclName"": ""country, state, region,..."", ""countryName"": ""Bosnia and Herzegovina"", ""fcodeName"": ""independent political entity"", ""adminName1"": """", ""lat"": ""44.25"", ""fcode"": ""PCLI""}";PCLI
34;70;Moldova, Republic of;617790;"{""adminCode1"": ""00"", ""lng"": ""28.58333"", ""geonameId"": 617790, ""toponymName"": ""Republic of Moldova"", ""countryId"": ""617790"", ""fcl"": ""A"", ""population"": 3545883, ""countryCode"": ""MD"", ""name"": ""Moldova"", ""fclName"": ""country, state, region,..."", ""countryName"": ""Moldova"", ""fcodeName"": ""independent political entity"", ""adminName1"": """", ""lat"": ""47.25"", ""fcode"": ""PCLI""}";PCLI
35;87;Bulgaria;732800;"{""adminCode1"": ""00"", ""lng"": ""25.25"", ""geonameId"": 732800, ""toponymName"": ""Republic of Bulgaria"", ""countryId"": ""732800"", ""fcl"": ""A"", ""population"": 7000039, ""countryCode"": ""BG"", ""name"": ""Bulgaria"", ""fclName"": ""country, state, region,..."", ""countryName"": ""Bulgaria"", ""fcodeName"": ""independent political entity"", ""adminName1"": """", ""lat"": ""42.66667"", ""fcode"": ""PCLI""}";PCLI
36;101;India;1269750;"{""adminCode1"": ""00"", ""lng"": ""79"", ""geonameId"": 1269750, ""toponymName"": ""Republic of India"", ""countryId"": ""1269750"", ""fcl"": ""A"", ""population"": 1352617328, ""countryCode"": ""IN"", ""name"": ""India"", ""fclName"": ""country, state, region,..."", ""countryName"": ""India"", ""fcodeName"": ""independent political entity"", ""adminName1"": """", ""lat"": ""22"", ""fcode"": ""PCLI""}";PCLI
37;102;Lithuania;597427;"{""adminCode1"": ""00"", ""lng"": ""24"", ""geonameId"": 597427, ""toponymName"": ""Republic of Lithuania"", ""countryId"": ""597427"", ""fcl"": ""A"", ""population"": 2789533, ""countryCode"": ""LT"", ""name"": ""Lithuania"", ""fclName"": ""country, state, region,..."", ""countryName"": ""Lithuania"", ""fcodeName"": ""independent political entity"", ""adminName1"": """", ""lat"": ""55.41667"", ""fcode"": ""PCLI""}";PCLI
38;107;Hungary;719819;"{""adminCode1"": ""00"", ""lng"": ""20"", ""geonameId"": 719819, ""toponymName"": ""Hungary"", ""countryId"": ""719819"", ""fcl"": ""A"", ""population"": 9768785, ""countryCode"": ""HU"", ""name"": ""Hungary"", ""fclName"": ""country, state, region,..."", ""countryName"": ""Hungary"", ""fcodeName"": ""independent political entity"", ""adminName1"": """", ""lat"": ""47"", ""fcode"": ""PCLI""}";PCLI
39;130;Serbia;6290252;"{""adminCode1"": ""00"", ""lng"": ""20.45998"", ""geonameId"": 6290252, ""toponymName"": ""Serbia"", ""countryId"": ""6290252"", ""fcl"": ""A"", ""population"": 6982084, ""countryCode"": ""RS"", ""name"": ""Serbia"", ""fclName"": ""country, state, region,..."", ""countryName"": ""Serbia"", ""fcodeName"": ""independent political entity"", ""adminName1"": """", ""lat"": ""44.81892"", ""fcode"": ""PCLI""}";PCLI
40;103;Bhutan;1252634;"{""adminCode1"": ""00"", ""lng"": ""90.5"", ""geonameId"": 1252634, ""toponymName"": ""Kingdom of Bhutan"", ""countryId"": ""1252634"", ""fcl"": ""A"", ""population"": 754394, ""countryCode"": ""BT"", ""name"": ""Bhutan"", ""fclName"": ""country, state, region,..."", ""countryName"": ""Bhutan"", ""fcodeName"": ""independent political entity"", ""adminName1"": """", ""lat"": ""27.5"", ""fcode"": ""PCLI""}";PCLI
41;143;Dominican Republic;3508796;"{""adminCode1"": ""00"", ""lng"": ""-70.66667"", ""geonameId"": 3508796, ""toponymName"": ""Dominican Republic"", ""countryId"": ""3508796"", ""fcl"": ""A"", ""population"": 10627165, ""countryCode"": ""DO"", ""name"": ""Dominican Republic"", ""fclName"": ""country, state, region,..."", ""countryName"": ""Dominican Republic"", ""fcodeName"": ""independent political entity"", ""adminName1"": """", ""lat"": ""19"", ""fcode"": ""PCLI""}";PCLI
42;4;Croatia;3202326;"{""adminCode1"": ""00"", ""lng"": ""15.5"", ""geonameId"": 3202326, ""toponymName"": ""Republic of Croatia"", ""countryId"": ""3202326"", ""fcl"": ""A"", ""population"": 4089400, ""countryCode"": ""HR"", ""name"": ""Croatia"", ""fclName"": ""country, state, region,..."", ""countryName"": ""Croatia"", ""fcodeName"": ""independent political entity"", ""adminName1"": """", ""lat"": ""45.16667"", ""fcode"": ""PCLI""}";PCLI
43;151;U.K. of Great Britain and Northern Ireland;2635167;"{""adminCode1"": ""00"", ""lng"": ""-2.69531"", ""geonameId"": 2635167, ""toponymName"": ""United Kingdom of Great Britain and Northern Ireland"", ""countryId"": ""2635167"", ""fcl"": ""A"", ""population"": 66488991, ""countryCode"": ""GB"", ""name"": ""United Kingdom"", ""fclName"": ""country, state, region,..."", ""countryName"": ""United Kingdom"", ""fcodeName"": ""independent political entity"", ""adminName1"": """", ""lat"": ""54.75844"", ""fcode"": ""PCLI""}";PCLI
44;109;China/India;1256222;"{""adminCode1"": ""00"", ""lng"": ""75.8965"", ""geonameId"": 1256222, ""toponymName"": ""S\u012bna River"", ""countryId"": ""1269750"", ""fcl"": ""H"", ""population"": 0, ""countryCode"": ""IN"", ""name"": ""S\u012bna River"", ""fclName"": ""stream, lake, ..."", ""countryName"": ""India"", ""fcodeName"": ""stream"", ""adminName1"": """", ""lat"": ""17.37944"", ""fcode"": ""STM""}";STM
45;182;Costa Rica;3624060;"{""adminCode1"": ""00"", ""lng"": ""-84"", ""geonameId"": 3624060, ""toponymName"": ""Republic of Costa Rica"", ""countryId"": ""3624060"", ""fcl"": ""A"", ""population"": 4999441, ""countryCode"": ""CR"", ""name"": ""Costa Rica"", ""fclName"": ""country, state, region,..."", ""countryName"": ""Costa Rica"", ""fcodeName"": ""independent political entity"", ""adminName1"": """", ""lat"": ""10"", ""fcode"": ""PCLI""}";PCLI
46;191;Brazil;3469034;"{""adminCode1"": ""00"", ""lng"": ""-55"", ""geonameId"": 3469034, ""toponymName"": ""Federative Republic of Brazil"", ""countryId"": ""3469034"", ""fcl"": ""A"", ""population"": 209469333, ""countryCode"": ""BR"", ""name"": ""Brazil"", ""fclName"": ""country, state, region,..."", ""countryName"": ""Brazil"", ""fcodeName"": ""independent political entity"", ""adminName1"": """", ""lat"": ""-10"", ""fcode"": ""PCLI""}";PCLI
47;214;Japan;1861060;"{""adminCode1"": ""00"", ""lng"": ""139.75309"", ""geonameId"": 1861060, ""toponymName"": ""Japan"", ""countryId"": ""1861060"", ""fcl"": ""A"", ""population"": 126529100, ""countryCode"": ""JP"", ""name"": ""Japan"", ""fclName"": ""country, state, region,..."", ""countryName"": ""Japan"", ""fcodeName"": ""independent political entity"", ""adminName1"": """", ""lat"": ""35.68536"", ""fcode"": ""PCLI""}";PCLI
48;210;Swaziland;934841;"{""adminCode1"": ""00"", ""lng"": ""31.5"", ""geonameId"": 934841, ""toponymName"": ""Eswatini"", ""countryId"": ""934841"", ""fcl"": ""A"", ""population"": 1136191, ""countryCode"": ""SZ"", ""name"": ""Eswatini"", ""fclName"": ""country, state, region,..."", ""countryName"": ""Eswatini"", ""fcodeName"": ""independent political entity"", ""adminName1"": """", ""lat"": ""-26.5"", ""fcode"": ""PCLI""}";PCLI
49;56;French Polynesia;4030656;"{""adminCode1"": ""00"", ""lng"": ""-140"", ""geonameId"": 4030656, ""toponymName"": ""French Polynesia"", ""countryId"": ""4030656"", ""fcl"": ""A"", ""population"": 277679, ""countryCode"": ""PF"", ""name"": ""French Polynesia"", ""fclName"": ""country, state, region,..."", ""countryName"": ""French Polynesia"", ""fcodeName"": ""dependent political entity"", ""adminName1"": """", ""lat"": ""-15"", ""fcode"": ""PCLD""}";PCLD
50;166;Argentina;3865483;"{""adminCode1"": ""00"", ""lng"": ""-64"", ""geonameId"": 3865483, ""toponymName"": ""Argentine Republic"", ""countryId"": ""3865483"", ""fcl"": ""A"", ""population"": 44494502, ""countryCode"": ""AR"", ""name"": ""Argentina"", ""fclName"": ""country, state, region,..."", ""countryName"": ""Argentina"", ""fcodeName"": ""independent political entity"", ""adminName1"": """", ""lat"": ""-34"", ""fcode"": ""PCLI""}";PCLI
51;72;Arunachal Pradesh;1278341;"{""adminCode1"": ""30"", ""lng"": ""93.37"", ""geonameId"": 1278341, ""toponymName"": ""State of Arun\u0101chal Pradesh"", ""countryId"": ""1269750"", ""fcl"": ""A"", ""population"": 1383727, ""countryCode"": ""IN"", ""name"": ""Arunachal Pradesh"", ""fclName"": ""country, state, region,..."", ""adminCodes1"": {""ISO3166_2"": ""AR""}, ""countryName"": ""India"", ""fcodeName"": ""first-order administrative division"", ""adminName1"": ""Arunachal Pradesh"", ""lat"": ""27.06"", ""fcode"": ""ADM1""}";ADM1
52;73;Abyei;10401811;"{""adminCode1"": ""34"", ""lng"": ""28.436"", ""geonameId"": 10401811, ""toponymName"": ""Abyei"", ""countryId"": ""366755"", ""fcl"": ""L"", ""population"": 0, ""countryCode"": ""SD"", ""name"": ""Abyei"", ""fclName"": ""parks,area, ..."", ""countryName"": ""Sudan"", ""fcodeName"": ""area"", ""adminName1"": ""Kurdufan Wilayat"", ""lat"": ""9.595"", ""fcode"": ""AREA""}";AREA
53;207;Czech Republic;3077311;"{""adminCode1"": ""00"", ""lng"": ""15"", ""geonameId"": 3077311, ""toponymName"": ""Czechia"", ""countryId"": ""3077311"", ""fcl"": ""A"", ""population"": 10625695, ""countryCode"": ""CZ"", ""name"": ""Czechia"", ""fclName"": ""country, state, region,..."", ""countryName"": ""Czechia"", ""fcodeName"": ""independent political entity"", ""adminName1"": """", ""lat"": ""49.75"", ""fcode"": ""PCLI""}";PCLI
54;95;Réunion;935317;"{""adminCode1"": ""00"", ""lng"": ""55.6"", ""geonameId"": 935317, ""toponymName"": ""Reunion"", ""countryId"": ""935317"", ""fcl"": ""A"", ""population"": 776948, ""countryCode"": ""RE"", ""name"": ""R\u00e9union"", ""fclName"": ""country, state, region,..."", ""countryName"": ""R\u00e9union"", ""fcodeName"": ""dependent political entity"", ""adminName1"": """", ""lat"": ""-21.1"", ""fcode"": ""PCLD""}";PCLD
55;154;Estonia;453733;"{""adminCode1"": ""00"", ""lng"": ""26"", ""geonameId"": 453733, ""toponymName"": ""Republic of Estonia"", ""countryId"": ""453733"", ""fcl"": ""A"", ""population"": 1320884, ""countryCode"": ""EE"", ""name"": ""Estonia"", ""fclName"": ""country, state, region,..."", ""countryName"": ""Estonia"", ""fcodeName"": ""independent political entity"", ""adminName1"": """", ""lat"": ""59"", ""fcode"": ""PCLI""}";PCLI
56;216;Switzerland;2658434;"{""adminCode1"": ""00"", ""lng"": ""8.01427"", ""geonameId"": 2658434, ""toponymName"": ""Switzerland"", ""countryId"": ""2658434"", ""fcl"": ""A"", ""population"": 8516543, ""countryCode"": ""CH"", ""name"": ""Switzerland"", ""fclName"": ""country, state, region,..."", ""countryName"": ""Switzerland"", ""fcodeName"": ""independent political entity"", ""adminName1"": """", ""lat"": ""47.00016"", ""fcode"": ""PCLI""}";PCLI
57;66;Ghana;2300660;"{""adminCode1"": ""00"", ""lng"": ""-1.2"", ""geonameId"": 2300660, ""toponymName"": ""Republic of Ghana"", ""countryId"": ""2300660"", ""fcl"": ""A"", ""population"": 29767108, ""countryCode"": ""GH"", ""name"": ""Ghana"", ""fclName"": ""country, state, region,..."", ""countryName"": ""Ghana"", ""fcodeName"": ""independent political entity"", ""adminName1"": """", ""lat"": ""8.1"", ""fcode"": ""PCLI""}";PCLI
58;133;Lesotho;932692;"{""adminCode1"": ""00"", ""lng"": ""28.25"", ""geonameId"": 932692, ""toponymName"": ""Kingdom of Lesotho"", ""countryId"": ""932692"", ""fcl"": ""A"", ""population"": 2108132, ""countryCode"": ""LS"", ""name"": ""Lesotho"", ""fclName"": ""country, state, region,..."", ""countryName"": ""Lesotho"", ""fcodeName"": ""independent political entity"", ""adminName1"": """", ""lat"": ""-29.5"", ""fcode"": ""PCLI""}";PCLI
59;155;Nigeria;2328926;"{""adminCode1"": ""00"", ""lng"": ""8"", ""geonameId"": 2328926, ""toponymName"": ""Federal Republic of Nigeria"", ""countryId"": ""2328926"", ""fcl"": ""A"", ""population"": 195874740, ""countryCode"": ""NG"", ""name"": ""Nigeria"", ""fclName"": ""country, state, region,..."", ""countryName"": ""Nigeria"", ""fcodeName"": ""independent political entity"", ""adminName1"": """", ""lat"": ""10"", ""fcode"": ""PCLI""}";PCLI
60;148;Malawi;927384;"{""adminCode1"": ""00"", ""lng"": ""34"", ""geonameId"": 927384, ""toponymName"": ""Republic of Malawi"", ""countryId"": ""927384"", ""fcl"": ""A"", ""population"": 17563749, ""countryCode"": ""MW"", ""name"": ""Malawi"", ""fclName"": ""country, state, region,..."", ""countryName"": ""Malawi"", ""fcodeName"": ""independent political entity"", ""adminName1"": """", ""lat"": ""-13.5"", ""fcode"": ""PCLI""}";PCLI
61;23;Finland;660013;"{""adminCode1"": ""00"", ""lng"": ""26"", ""geonameId"": 660013, ""toponymName"": ""Republic of Finland"", ""countryId"": ""660013"", ""fcl"": ""A"", ""population"": 5518050, ""countryCode"": ""FI"", ""name"": ""Finland"", ""fclName"": ""country, state, region,..."", ""countryName"": ""Finland"", ""fcodeName"": ""independent political entity"", ""adminName1"": """", ""lat"": ""64"", ""fcode"": ""PCLI""}";PCLI
62;41;Lao People's Democratic Republic;1655842;"{""adminCode1"": ""00"", ""lng"": ""105"", ""geonameId"": 1655842, ""toponymName"": ""Lao People\u2019s Democratic Republic"", ""countryId"": ""1655842"", ""fcl"": ""A"", ""population"": 7061507, ""countryCode"": ""LA"", ""name"": ""Laos"", ""fclName"": ""country, state, region,..."", ""countryName"": ""Laos"", ""fcodeName"": ""independent political entity"", ""adminName1"": """", ""lat"": ""18"", ""fcode"": ""PCLI""}";PCLI
63;156;Somalia;51537;"{""adminCode1"": ""00"", ""lng"": ""48"", ""geonameId"": 51537, ""toponymName"": ""Somalia"", ""countryId"": ""51537"", ""fcl"": ""A"", ""population"": 15008154, ""countryCode"": ""SO"", ""name"": ""Somalia"", ""fclName"": ""country, state, region,..."", ""countryName"": ""Somalia"", ""fcodeName"": ""independent political entity"", ""adminName1"": """", ""lat"": ""6"", ""fcode"": ""PCLI""}";PCLI
64;163;Kenya;192950;"{""adminCode1"": ""00"", ""lng"": ""38"", ""geonameId"": 192950, ""toponymName"": ""Republic of Kenya"", ""countryId"": ""192950"", ""fcl"": ""A"", ""population"": 51393010, ""countryCode"": ""KE"", ""name"": ""Kenya"", ""fclName"": ""country, state, region,..."", ""countryName"": ""Kenya"", ""fcodeName"": ""independent political entity"", ""adminName1"": """", ""lat"": ""1"", ""fcode"": ""PCLI""}";PCLI
65;176;Libya;2215636;"{""adminCode1"": ""00"", ""lng"": ""17"", ""geonameId"": 2215636, ""toponymName"": ""Libya"", ""countryId"": ""2215636"", ""fcl"": ""A"", ""population"": 6678567, ""countryCode"": ""LY"", ""name"": ""Libya"", ""fclName"": ""country, state, region,..."", ""countryName"": ""Libya"", ""fcodeName"": ""independent political entity"", ""adminName1"": """", ""lat"": ""28"", ""fcode"": ""PCLI""}";PCLI
66;195;Benin;2395170;"{""adminCode1"": ""00"", ""lng"": ""2.25"", ""geonameId"": 2395170, ""toponymName"": ""Republic of Benin"", ""countryId"": ""2395170"", ""fcl"": ""A"", ""population"": 11485048, ""countryCode"": ""BJ"", ""name"": ""Benin"", ""fclName"": ""country, state, region,..."", ""countryName"": ""Benin"", ""fcodeName"": ""independent political entity"", ""adminName1"": """", ""lat"": ""9.5"", ""fcode"": ""PCLI""}";PCLI
67;185;Ethiopia;337996;"{""adminCode1"": ""00"", ""lng"": ""39.5"", ""geonameId"": 337996, ""toponymName"": ""Federal Democratic Republic of Ethiopia"", ""countryId"": ""337996"", ""fcl"": ""A"", ""population"": 109224559, ""countryCode"": ""ET"", ""name"": ""Ethiopia"", ""fclName"": ""country, state, region,..."", ""countryName"": ""Ethiopia"", ""fcodeName"": ""independent political entity"", ""adminName1"": """", ""lat"": ""9"", ""fcode"": ""PCLI""}";PCLI
68;209;Uganda;226074;"{""adminCode1"": ""00"", ""lng"": ""32.5"", ""geonameId"": 226074, ""toponymName"": ""Republic of Uganda"", ""countryId"": ""226074"", ""fcl"": ""A"", ""population"": 42723139, ""countryCode"": ""UG"", ""name"": ""Uganda"", ""fclName"": ""country, state, region,..."", ""countryName"": ""Uganda"", ""fcodeName"": ""independent political entity"", ""adminName1"": """", ""lat"": ""1.25"", ""fcode"": ""PCLI""}";PCLI
69;218;Zimbabwe;878675;"{""adminCode1"": ""00"", ""lng"": ""29.75"", ""geonameId"": 878675, ""toponymName"": ""Republic of Zimbabwe"", ""countryId"": ""878675"", ""fcl"": ""A"", ""population"": 14439018, ""countryCode"": ""ZW"", ""name"": ""Zimbabwe"", ""fclName"": ""country, state, region,..."", ""countryName"": ""Zimbabwe"", ""fcodeName"": ""independent political entity"", ""adminName1"": """", ""lat"": ""-19"", ""fcode"": ""PCLI""}";PCLI
70;126;Philippines;1694008;"{""adminCode1"": ""00"", ""lng"": ""122.56155"", ""geonameId"": 1694008, ""toponymName"": ""Republic of the Philippines"", ""countryId"": ""1694008"", ""fcl"": ""A"", ""population"": 106651922, ""countryCode"": ""PH"", ""name"": ""Philippines"", ""fclName"": ""country, state, region,..."", ""countryName"": ""Philippines"", ""fcodeName"": ""independent political entity"", ""adminName1"": """", ""lat"": ""13.40882"", ""fcode"": ""PCLI""}";PCLI
71;164;Yemen;69543;"{""adminCode1"": ""00"", ""lng"": ""47.5"", ""geonameId"": 69543, ""toponymName"": ""Republic of Yemen"", ""countryId"": ""69543"", ""fcl"": ""A"", ""population"": 28498687, ""countryCode"": ""YE"", ""name"": ""Yemen"", ""fclName"": ""country, state, region,..."", ""countryName"": ""Yemen"", ""fcodeName"": ""independent political entity"", ""adminName1"": """", ""lat"": ""15.5"", ""fcode"": ""PCLI""}";PCLI
72;93;Nicaragua;3617476;"{""adminCode1"": ""00"", ""lng"": ""-85"", ""geonameId"": 3617476, ""toponymName"": ""Republic of Nicaragua"", ""countryId"": ""3617476"", ""fcl"": ""A"", ""population"": 6465513, ""countryCode"": ""NI"", ""name"": ""Nicaragua"", ""fclName"": ""country, state, region,..."", ""countryName"": ""Nicaragua"", ""fcodeName"": ""independent political entity"", ""adminName1"": """", ""lat"": ""13"", ""fcode"": ""PCLI""}";PCLI
73;42;Mayotte;1024031;"{""adminCode1"": ""00"", ""lng"": ""45.16667"", ""geonameId"": 1024031, ""toponymName"": ""Mayotte"", ""countryId"": ""1024031"", ""fcl"": ""A"", ""population"": 279471, ""countryCode"": ""YT"", ""name"": ""Mayotte"", ""fclName"": ""country, state, region,..."", ""countryName"": ""Mayotte"", ""fcodeName"": ""dependent political entity"", ""adminName1"": """", ""lat"": ""-12.83333"", ""fcode"": ""PCLD""}";PCLD
74;104;Qatar;289688;"{""adminCode1"": ""00"", ""lng"": ""51.25"", ""geonameId"": 289688, ""toponymName"": ""State of Qatar"", ""countryId"": ""289688"", ""fcl"": ""A"", ""population"": 2781677, ""countryCode"": ""QA"", ""name"": ""Qatar"", ""fclName"": ""country, state, region,..."", ""countryName"": ""Qatar"", ""fcodeName"": ""independent political entity"", ""adminName1"": """", ""lat"": ""25.5"", ""fcode"": ""PCLI""}";PCLI
75;100;Honduras;3608932;"{""adminCode1"": ""00"", ""lng"": ""-86.5"", ""geonameId"": 3608932, ""toponymName"": ""Republic of Honduras"", ""countryId"": ""3608932"", ""fcl"": ""A"", ""population"": 9587522, ""countryCode"": ""HN"", ""name"": ""Honduras"", ""fclName"": ""country, state, region,..."", ""countryName"": ""Honduras"", ""fcodeName"": ""independent political entity"", ""adminName1"": """", ""lat"": ""15"", ""fcode"": ""PCLI""}";PCLI
76;186;Jammu and Kashmir;1269320;"{""adminCode1"": ""12"", ""lng"": ""75.40781"", ""geonameId"": 1269320, ""toponymName"": ""Jammu and Kashmir"", ""countryId"": ""1269320"", ""fcl"": ""A"", ""population"": 12258433, ""countryCode"": ""IN"", ""name"": ""Jammu and Kashmir"", ""fclName"": ""country, state, region,..."", ""adminCodes1"": {""ISO3166_2"": ""JK""}, ""countryName"": ""India"", ""fcodeName"": ""first-order administrative division"", ""adminName1"": ""Jammu and Kashmir"", ""lat"": ""33.5329"", ""fcode"": ""PCLI""}";PCLI
77;197;France;3017382;"{""adminCode1"": ""00"", ""lng"": ""2"", ""geonameId"": 3017382, ""toponymName"": ""Republic of France"", ""countryId"": ""3017382"", ""fcl"": ""A"", ""population"": 66987244, ""countryCode"": ""FR"", ""name"": ""France"", ""fclName"": ""country, state, region,..."", ""countryName"": ""France"", ""fcodeName"": ""independent political entity"", ""adminName1"": """", ""lat"": ""46"", ""fcode"": ""PCLI""}";PCLI
78;168;Sierra Leone;2403846;"{""adminCode1"": ""00"", ""lng"": ""-11.5"", ""geonameId"": 2403846, ""toponymName"": ""Republic of Sierra Leone"", ""countryId"": ""2403846"", ""fcl"": ""A"", ""population"": 7650154, ""countryCode"": ""SL"", ""name"": ""Sierra Leone"", ""fclName"": ""country, state, region,..."", ""countryName"": ""Sierra Leone"", ""fcodeName"": ""independent political entity"", ""adminName1"": """", ""lat"": ""8.5"", ""fcode"": ""PCLI""}";PCLI
79;201;Lebanon;272103;"{""adminCode1"": ""00"", ""lng"": ""35.83333"", ""geonameId"": 272103, ""toponymName"": ""Lebanon"", ""countryId"": ""272103"", ""fcl"": ""A"", ""population"": 6848925, ""countryCode"": ""LB"", ""name"": ""Lebanon"", ""fclName"": ""country, state, region,..."", ""countryName"": ""Lebanon"", ""fcodeName"": ""independent political entity"", ""adminName1"": """", ""lat"": ""33.83333"", ""fcode"": ""PCLI""}";PCLI
80;146;Saudi Arabia;102358;"{""adminCode1"": ""00"", ""lng"": ""45"", ""geonameId"": 102358, ""toponymName"": ""Kingdom of Saudi Arabia"", ""countryId"": ""102358"", ""fcl"": ""A"", ""population"": 33699947, ""countryCode"": ""SA"", ""name"": ""Saudi Arabia"", ""fclName"": ""country, state, region,..."", ""countryName"": ""Saudi Arabia"", ""fcodeName"": ""independent political entity"", ""adminName1"": """", ""lat"": ""25"", ""fcode"": ""PCLI""}";PCLI
81;189;Thailand;1605651;"{""adminCode1"": ""00"", ""lng"": ""101"", ""geonameId"": 1605651, ""toponymName"": ""Kingdom of Thailand"", ""countryId"": ""1605651"", ""fcl"": ""A"", ""population"": 69428524, ""countryCode"": ""TH"", ""name"": ""Thailand"", ""fclName"": ""country, state, region,..."", ""countryName"": ""Thailand"", ""fcodeName"": ""independent political entity"", ""adminName1"": """", ""lat"": ""15.5"", ""fcode"": ""PCLI""}";PCLI
82;28;Guam;4043988;"{""adminCode1"": ""00"", ""lng"": ""144.81834"", ""geonameId"": 4043988, ""toponymName"": ""Guam"", ""countryId"": ""4043988"", ""fcl"": ""A"", ""population"": 165768, ""countryCode"": ""GU"", ""name"": ""Guam"", ""fclName"": ""country, state, region,..."", ""countryName"": ""Guam"", ""fcodeName"": ""dependent political entity"", ""adminName1"": """", ""lat"": ""13.47861"", ""fcode"": ""PCLD""}";PCLD
83;217;Hala'ib triangle;9409382;"{""lng"": ""35.49133"", ""geonameId"": 9409382, ""toponymName"": ""Hala'ib Triangle"", ""countryId"": ""357994"", ""fcl"": ""A"", ""population"": 0, ""countryCode"": ""EG"", ""name"": ""Hala'ib Triangle"", ""fclName"": ""country, state, region,..."", ""countryName"": ""Egypt"", ""fcodeName"": ""zone"", ""adminName1"": """", ""lat"": ""22.51002"", ""fcode"": ""ZN""}";ZN
84;50;Uzbekistan;1512440;"{""adminCode1"": ""00"", ""lng"": ""63.83333"", ""geonameId"": 1512440, ""toponymName"": ""Republic of Uzbekistan"", ""countryId"": ""1512440"", ""fcl"": ""A"", ""population"": 32955400, ""countryCode"": ""UZ"", ""name"": ""Uzbekistan"", ""fclName"": ""country, state, region,..."", ""countryName"": ""Uzbekistan"", ""fcodeName"": ""independent political entity"", ""adminName1"": """", ""lat"": ""41.66667"", ""fcode"": ""PCLI""}";PCLI
85;20;Bangladesh;1210997;"{""adminCode1"": ""00"", ""lng"": ""90"", ""geonameId"": 1210997, ""toponymName"": ""Bangladesh"", ""countryId"": ""1210997"", ""fcl"": ""A"", ""population"": 161356039, ""countryCode"": ""BD"", ""name"": ""Bangladesh"", ""fclName"": ""country, state, region,..."", ""countryName"": ""Bangladesh"", ""fcodeName"": ""independent political entity"", ""adminName1"": """", ""lat"": ""24"", ""fcode"": ""PCLI""}";PCLI
86;49;Turkey;298795;"{""adminCode1"": ""00"", ""lng"": ""35"", ""geonameId"": 298795, ""toponymName"": ""Republic of Turkey"", ""countryId"": ""298795"", ""fcl"": ""A"", ""population"": 82319724, ""countryCode"": ""TR"", ""name"": ""Turkey"", ""fclName"": ""country, state, region,..."", ""countryName"": ""Turkey"", ""fcodeName"": ""independent political entity"", ""adminName1"": """", ""lat"": ""39"", ""fcode"": ""PCLI""}";PCLI
87;161;Dem People's Rep of Korea;-1;"""-1""";
88;52;El Salvador;3583361;"{""adminCode1"": ""10"", ""lng"": ""-89.18718"", ""geonameId"": 3583361, ""toponymName"": ""San Salvador"", ""countryId"": ""3585968"", ""fcl"": ""P"", ""population"": 525990, ""countryCode"": ""SV"", ""name"": ""San Salvador"", ""fclName"": ""city, village,..."", ""adminCodes1"": {""ISO3166_2"": ""SS""}, ""countryName"": ""El Salvador"", ""fcodeName"": ""capital of a political entity"", ""adminName1"": ""San Salvador"", ""lat"": ""13.68935"", ""fcode"": ""PPLC""}";PPLC
89;74;United Republic of Tanzania;149590;"{""adminCode1"": ""00"", ""lng"": ""35"", ""geonameId"": 149590, ""toponymName"": ""United Republic of Tanzania"", ""countryId"": ""149590"", ""fcl"": ""A"", ""population"": 56318348, ""countryCode"": ""TZ"", ""name"": ""Tanzania"", ""fclName"": ""country, state, region,..."", ""countryName"": ""Tanzania"", ""fcodeName"": ""independent political entity"", ""adminName1"": """", ""lat"": ""-6"", ""fcode"": ""PCLI""}";PCLI
90;6;Andorra;3041565;"{""adminCode1"": ""00"", ""lng"": ""1.58333"", ""geonameId"": 3041565, ""toponymName"": ""Principality of Andorra"", ""countryId"": ""3041565"", ""fcl"": ""A"", ""population"": 77006, ""countryCode"": ""AD"", ""name"": ""Andorra"", ""fclName"": ""country, state, region,..."", ""countryName"": ""Andorra"", ""fcodeName"": ""independent political entity"", ""adminName1"": """", ""lat"": ""42.55"", ""fcode"": ""PCLI""}";PCLI
91;129;Namibia;3355338;"{""adminCode1"": ""00"", ""lng"": ""17"", ""geonameId"": 3355338, ""toponymName"": ""Republic of Namibia"", ""countryId"": ""3355338"", ""fcl"": ""A"", ""population"": 2448255, ""countryCode"": ""NA"", ""name"": ""Namibia"", ""fclName"": ""country, state, region,..."", ""countryName"": ""Namibia"", ""fcodeName"": ""independent political entity"", ""adminName1"": """", ""lat"": ""-22"", ""fcode"": ""PCLI""}";PCLI
92;219;Burkina Faso;2361809;"{""adminCode1"": ""00"", ""lng"": ""-1.66667"", ""geonameId"": 2361809, ""toponymName"": ""Burkina Faso"", ""countryId"": ""2361809"", ""fcl"": ""A"", ""population"": 19751535, ""countryCode"": ""BF"", ""name"": ""Burkina Faso"", ""fclName"": ""country, state, region,..."", ""countryName"": ""Burkina Faso"", ""fcodeName"": ""independent political entity"", ""adminName1"": """", ""lat"": ""12.5"", ""fcode"": ""PCLI""}";PCLI
93;30;Comoros;921929;"{""adminCode1"": ""00"", ""lng"": ""44.44553"", ""geonameId"": 921929, ""toponymName"": ""Union of the Comoros"", ""countryId"": ""921929"", ""fcl"": ""A"", ""population"": 832322, ""countryCode"": ""KM"", ""name"": ""Comoros"", ""fclName"": ""country, state, region,..."", ""countryName"": ""Comoros"", ""fcodeName"": ""independent political entity"", ""adminName1"": """", ""lat"": ""-12.23333"", ""fcode"": ""PCLI""}";PCLI
94;60;Puerto Rico;4566967;"{""lng"": ""-66.50101"", ""geonameId"": 4566967, ""toponymName"": ""Puerto Rico"", ""countryId"": ""4566966"", ""fcl"": ""T"", ""population"": 3474182, ""countryCode"": ""PR"", ""name"": ""Puerto Rico"", ""fclName"": ""mountain,hill,rock,... "", ""countryName"": ""Puerto Rico"", ""fcodeName"": ""island"", ""adminName1"": """", ""lat"": ""18.2494"", ""fcode"": ""ISL""}";ISL
95;16;Bahrain;290291;"{""adminCode1"": ""00"", ""lng"": ""50.55"", ""geonameId"": 290291, ""toponymName"": ""Kingdom of Bahrain"", ""countryId"": ""290291"", ""fcl"": ""A"", ""population"": 1569439, ""countryCode"": ""BH"", ""name"": ""Bahrain"", ""fclName"": ""country, state, region,..."", ""countryName"": ""Bahrain"", ""fcodeName"": ""independent political entity"", ""adminName1"": """", ""lat"": ""26.03333"", ""fcode"": ""PCLI""}";PCLI
96;17;Barbados;3374084;"{""adminCode1"": ""00"", ""lng"": ""-59.55165"", ""geonameId"": 3374084, ""toponymName"": ""Barbados"", ""countryId"": ""3374084"", ""fcl"": ""A"", ""population"": 286641, ""countryCode"": ""BB"", ""name"": ""Barbados"", ""fclName"": ""country, state, region,..."", ""countryName"": ""Barbados"", ""fcodeName"": ""independent political entity"", ""adminName1"": """", ""lat"": ""13.16453"", ""fcode"": ""PCLI""}";PCLI
97;22;Dominica;3575830;"{""adminCode1"": ""00"", ""lng"": ""-61.33333"", ""geonameId"": 3575830, ""toponymName"": ""Dominica"", ""countryId"": ""3575830"", ""fcl"": ""A"", ""population"": 71625, ""countryCode"": ""DM"", ""name"": ""Dominica"", ""fclName"": ""country, state, region,..."", ""countryName"": ""Dominica"", ""fcodeName"": ""independent political entity"", ""adminName1"": """", ""lat"": ""15.5"", ""fcode"": ""PCLI""}";PCLI
98;32;Mongolia;2029969;"{""adminCode1"": ""00"", ""lng"": ""105"", ""geonameId"": 2029969, ""toponymName"": ""Mongolia"", ""countryId"": ""2029969"", ""fcl"": ""A"", ""population"": 3170208, ""countryCode"": ""MN"", ""name"": ""Mongolia"", ""fclName"": ""country, state, region,..."", ""countryName"": ""Mongolia"", ""fcodeName"": ""independent political entity"", ""adminName1"": """", ""lat"": ""46"", ""fcode"": ""PCLI""}";PCLI
99;57;Venezuela;3625428;"{""adminCode1"": ""00"", ""lng"": ""-66"", ""geonameId"": 3625428, ""toponymName"": ""Bolivarian Republic of Venezuela"", ""countryId"": ""3625428"", ""fcl"": ""A"", ""population"": 28870195, ""countryCode"": ""VE"", ""name"": ""Venezuela"", ""fclName"": ""country, state, region,..."", ""countryName"": ""Venezuela"", ""fcodeName"": ""independent political entity"", ""adminName1"": """", ""lat"": ""8"", ""fcode"": ""PCLI""}";PCLI
100;199;Pakistan;1168579;"{""adminCode1"": ""00"", ""lng"": ""70"", ""geonameId"": 1168579, ""toponymName"": ""Islamic Republic of Pakistan"", ""countryId"": ""1168579"", ""fcl"": ""A"", ""population"": 212215030, ""countryCode"": ""PK"", ""name"": ""Pakistan"", ""fclName"": ""country, state, region,..."", ""countryName"": ""Pakistan"", ""fcodeName"": ""independent political entity"", ""adminName1"": """", ""lat"": ""30"", ""fcode"": ""PCLI""}";PCLI
101;58;Israel;294640;"{""adminCode1"": ""00"", ""lng"": ""34.75"", ""geonameId"": 294640, ""toponymName"": ""State of Israel"", ""countryId"": ""294640"", ""fcl"": ""A"", ""population"": 8883800, ""countryCode"": ""IL"", ""name"": ""Israel"", ""fclName"": ""country, state, region,..."", ""countryName"": ""Israel"", ""fcodeName"": ""independent political entity"", ""adminName1"": """", ""lat"": ""31.5"", ""fcode"": ""PCLI""}";PCLI
102;44;Micronesia (Federated States of);-1;"""-1""";
103;47;Kiribati;4030945;"{""adminCode1"": ""00"", ""lng"": ""172.984"", ""geonameId"": 4030945, ""toponymName"": ""Republic of Kiribati"", ""countryId"": ""4030945"", ""fcl"": ""A"", ""population"": 115847, ""countryCode"": ""KI"", ""name"": ""Kiribati"", ""fclName"": ""country, state, region,..."", ""countryName"": ""Kiribati"", ""fcodeName"": ""independent political entity"", ""adminName1"": """", ""lat"": ""1.421"", ""fcode"": ""PCLI""}";PCLI
104;55;United States Virgin Islands;4796512;"{""adminCode1"": ""010"", ""lng"": ""-64.74698"", ""geonameId"": 4796512, ""toponymName"": ""Saint Croix"", ""countryId"": ""4796775"", ""fcl"": ""P"", ""population"": 50601, ""countryCode"": ""VI"", ""name"": ""St Croix"", ""fclName"": ""city, village,..."", ""adminCodes1"": {""ISO3166_2"": ""C""}, ""countryName"": ""U.S. Virgin Islands"", ""fcodeName"": ""seat of a first-order administrative division"", ""adminName1"": ""Saint Croix Island"", ""lat"": ""17.72751"", ""fcode"": ""PPLA""}";PPLA
105;34;Heard Island and McDonald Islands;-1;"""-1""";
106;119;New Caledonia;2139685;"{""adminCode1"": ""00"", ""lng"": ""165.5"", ""geonameId"": 2139685, ""toponymName"": ""New Caledonia"", ""countryId"": ""2139685"", ""fcl"": ""A"", ""population"": 284060, ""countryCode"": ""NC"", ""name"": ""New Caledonia"", ""fclName"": ""country, state, region,..."", ""countryName"": ""New Caledonia"", ""fcodeName"": ""dependent political entity"", ""adminName1"": """", ""lat"": ""-21.5"", ""fcode"": ""PCLD""}";PCLD
107;171;Poland;798544;"{""adminCode1"": ""00"", ""lng"": ""20"", ""geonameId"": 798544, ""toponymName"": ""Republic of Poland"", ""countryId"": ""798544"", ""fcl"": ""A"", ""population"": 37978548, ""countryCode"": ""PL"", ""name"": ""Poland"", ""fclName"": ""country, state, region,..."", ""countryName"": ""Poland"", ""fcodeName"": ""independent political entity"", ""adminName1"": """", ""lat"": ""52"", ""fcode"": ""PCLI""}";PCLI
108;38;Denmark;2623032;"{""adminCode1"": ""00"", ""lng"": ""10"", ""geonameId"": 2623032, ""toponymName"": ""Kingdom of Denmark"", ""countryId"": ""2623032"", ""fcl"": ""A"", ""population"": 5797446, ""countryCode"": ""DK"", ""name"": ""Denmark"", ""fclName"": ""country, state, region,..."", ""countryName"": ""Denmark"", ""fcodeName"": ""independent political entity"", ""adminName1"": """", ""lat"": ""56"", ""fcode"": ""PCLI""}";PCLI
109;82;Senegal;2245662;"{""adminCode1"": ""00"", ""lng"": ""-14.25"", ""geonameId"": 2245662, ""toponymName"": ""Republic of Senegal"", ""countryId"": ""2245662"", ""fcl"": ""A"", ""population"": 15854360, ""countryCode"": ""SN"", ""name"": ""Senegal"", ""fclName"": ""country, state, region,..."", ""countryName"": ""Senegal"", ""fcodeName"": ""independent political entity"", ""adminName1"": """", ""lat"": ""14.5"", ""fcode"": ""PCLI""}";PCLI
110;193;Guinea;2420477;"{""adminCode1"": ""00"", ""lng"": ""-10.66667"", ""geonameId"": 2420477, ""toponymName"": ""Republic of Guinea"", ""countryId"": ""2420477"", ""fcl"": ""A"", ""population"": 12414318, ""countryCode"": ""GN"", ""name"": ""Guinea"", ""fclName"": ""country, state, region,..."", ""countryName"": ""Guinea"", ""fcodeName"": ""independent political entity"", ""adminName1"": """", ""lat"": ""10.83333"", ""fcode"": ""PCLI""}";PCLI
111;59;Mali;2453866;"{""adminCode1"": ""00"", ""lng"": ""-2"", ""geonameId"": 2453866, ""toponymName"": ""Republic of Mali"", ""countryId"": ""2453866"", ""fcl"": ""A"", ""population"": 19077690, ""countryCode"": ""ML"", ""name"": ""Mali"", ""fclName"": ""country, state, region,..."", ""countryName"": ""Mali"", ""fcodeName"": ""independent political entity"", ""adminName1"": """", ""lat"": ""18"", ""fcode"": ""PCLI""}";PCLI
112;39;Palau;1559582;"{""adminCode1"": ""00"", ""lng"": ""134.621"", ""geonameId"": 1559582, ""toponymName"": ""Republic of Palau"", ""countryId"": ""1559582"", ""fcl"": ""A"", ""population"": 17907, ""countryCode"": ""PW"", ""name"": ""Palau"", ""fclName"": ""country, state, region,..."", ""countryName"": ""Palau"", ""fcodeName"": ""freely associated state"", ""adminName1"": """", ""lat"": ""7.503"", ""fcode"": ""PCLF""}";PCLF
113;3;Guadeloupe;3579143;"{""adminCode1"": ""00"", ""lng"": ""-61.58333"", ""geonameId"": 3579143, ""toponymName"": ""Guadeloupe"", ""countryId"": ""3579143"", ""fcl"": ""A"", ""population"": 443000, ""countryCode"": ""GP"", ""name"": ""Guadeloupe"", ""fclName"": ""country, state, region,..."", ""countryName"": ""Guadeloupe"", ""fcodeName"": ""dependent political entity"", ""adminName1"": """", ""lat"": ""16.25"", ""fcode"": ""PCLD""}";PCLD
114;53;Singapore;1880251;"{""adminCode1"": ""00"", ""lng"": ""103.8"", ""geonameId"": 1880251, ""toponymName"": ""Republic of Singapore"", ""countryId"": ""1880251"", ""fcl"": ""A"", ""population"": 5638676, ""countryCode"": ""SG"", ""name"": ""Singapore"", ""fclName"": ""country, state, region,..."", ""countryName"": ""Singapore"", ""fcodeName"": ""independent political entity"", ""adminName1"": """", ""lat"": ""1.36667"", ""fcode"": ""PCLI""}";PCLI
115;65;Hong Kong;1819729;"{""adminCode1"": ""HCW"", ""lng"": ""114.17469"", ""geonameId"": 1819729, ""toponymName"": ""Hong Kong"", ""countryId"": ""1819730"", ""fcl"": ""P"", ""population"": 7482500, ""countryCode"": ""HK"", ""name"": ""Hong Kong"", ""fclName"": ""city, village,..."", ""adminCodes1"": {""ISO3166_2"": ""HCW""}, ""countryName"": ""Hong Kong"", ""fcodeName"": ""capital of a political entity"", ""adminName1"": ""Central and Western"", ""lat"": ""22.27832"", ""fcode"": ""PPLC""}";PPLC
116;46;Kingman Reef;5854935;"{""adminCode1"": ""250"", ""lng"": ""-162.399"", ""geonameId"": 5854935, ""toponymName"": ""Kingman Reef"", ""countryId"": ""5854968"", ""fcl"": ""T"", ""population"": 0, ""countryCode"": ""UM"", ""name"": ""Kingman Reef"", ""fclName"": ""mountain,hill,rock,... "", ""adminCodes1"": {""ISO3166_2"": ""89""}, ""countryName"": ""U.S. Outlying Islands"", ""fcodeName"": ""atoll(s)"", ""adminName1"": ""Kingman Reef"", ""lat"": ""6.4"", ""fcode"": ""ATOL""}";ATOL
117;54;Greece;390903;"{""adminCode1"": ""00"", ""lng"": ""22"", ""geonameId"": 390903, ""toponymName"": ""Hellenic Republic"", ""countryId"": ""390903"", ""fcl"": ""A"", ""population"": 10727668, ""countryCode"": ""GR"", ""name"": ""Greece"", ""fclName"": ""country, state, region,..."", ""countryName"": ""Greece"", ""fcodeName"": ""independent political entity"", ""adminName1"": """", ""lat"": ""39"", ""fcode"": ""PCLI""}";PCLI
118;84;United Arab Emirates;290557;"{""adminCode1"": ""00"", ""lng"": ""54.5"", ""geonameId"": 290557, ""toponymName"": ""United Arab Emirates"", ""countryId"": ""290557"", ""fcl"": ""A"", ""population"": 9630959, ""countryCode"": ""AE"", ""name"": ""United Arab Emirates"", ""fclName"": ""country, state, region,..."", ""countryName"": ""United Arab Emirates"", ""fcodeName"": ""independent political entity"", ""adminName1"": """", ""lat"": ""23.75"", ""fcode"": ""PCLI""}";PCLI
119;89;Oman;286963;"{""adminCode1"": ""00"", ""lng"": ""57"", ""geonameId"": 286963, ""toponymName"": ""Sultanate of Oman"", ""countryId"": ""286963"", ""fcl"": ""A"", ""population"": 4829483, ""countryCode"": ""OM"", ""name"": ""Oman"", ""fclName"": ""country, state, region,..."", ""countryName"": ""Oman"", ""fcodeName"": ""independent political entity"", ""adminName1"": """", ""lat"": ""21"", ""fcode"": ""PCLI""}";PCLI
120;91;Uruguay;3439705;"{""adminCode1"": ""00"", ""lng"": ""-56"", ""geonameId"": 3439705, ""toponymName"": ""Oriental Republic of Uruguay"", ""countryId"": ""3439705"", ""fcl"": ""A"", ""population"": 3449299, ""countryCode"": ""UY"", ""name"": ""Uruguay"", ""fclName"": ""country, state, region,..."", ""countryName"": ""Uruguay"", ""fcodeName"": ""independent political entity"", ""adminName1"": """", ""lat"": ""-33"", ""fcode"": ""PCLI""}";PCLI
121;98;Georgia;614540;"{""adminCode1"": ""00"", ""lng"": ""43.4999"", ""geonameId"": 614540, ""toponymName"": ""Georgia"", ""countryId"": ""614540"", ""fcl"": ""A"", ""population"": 3731000, ""countryCode"": ""GE"", ""name"": ""Georgia"", ""fclName"": ""country, state, region,..."", ""countryName"": ""Georgia"", ""fcodeName"": ""independent political entity"", ""adminName1"": """", ""lat"": ""41.99998"", ""fcode"": ""PCLI""}";PCLI
122;13;Kyrgyzstan;1527747;"{""adminCode1"": ""00"", ""lng"": ""75"", ""geonameId"": 1527747, ""toponymName"": ""Kyrgyz Republic"", ""countryId"": ""1527747"", ""fcl"": ""A"", ""population"": 6315800, ""countryCode"": ""KG"", ""name"": ""Kyrgyzstan"", ""fclName"": ""country, state, region,..."", ""countryName"": ""Kyrgyzstan"", ""fcodeName"": ""independent political entity"", ""adminName1"": """", ""lat"": ""41.5"", ""fcode"": ""PCLI""}";PCLI
123;99;Svalbard and Jan Mayen Islands;2731433;"{""adminCode1"": ""00"", ""lng"": ""14.95034"", ""geonameId"": 2731433, ""toponymName"": ""Dun\u00f8yane"", ""countryId"": ""607072"", ""fcl"": ""T"", ""population"": 0, ""countryCode"": ""SJ"", ""name"": ""Dun\u00f8yane"", ""fclName"": ""mountain,hill,rock,... "", ""countryName"": ""Svalbard and Jan Mayen"", ""fcodeName"": ""islands"", ""adminName1"": """", ""lat"": ""77.0614"", ""fcode"": ""ISLS""}";ISLS
124;110;French Guiana;3381670;"{""adminCode1"": ""00"", ""lng"": ""-53"", ""geonameId"": 3381670, ""toponymName"": ""Guyane"", ""countryId"": ""3381670"", ""fcl"": ""A"", ""population"": 195506, ""countryCode"": ""GF"", ""name"": ""French Guiana"", ""fclName"": ""country, state, region,..."", ""countryName"": ""French Guiana"", ""fcodeName"": ""dependent political entity"", ""adminName1"": """", ""lat"": ""4"", ""fcode"": ""PCLD""}";PCLD
125;123;Western Sahara;2461445;"{""adminCode1"": ""00"", ""lng"": ""-12.65625"", ""geonameId"": 2461445, ""toponymName"": ""Western Sahara"", ""countryId"": ""2461445"", ""fcl"": ""A"", ""population"": 273008, ""countryCode"": ""EH"", ""name"": ""Western Sahara"", ""fclName"": ""country, state, region,..."", ""countryName"": ""Western Sahara"", ""fcodeName"": ""territory"", ""adminName1"": """", ""lat"": ""24.49215"", ""fcode"": ""TERR""}";TERR
126;204;Aksai Chin;1281780;"{""adminCode1"": ""00"", ""lng"": ""79.53966"", ""geonameId"": 1281780, ""toponymName"": ""Aksai Chin"", ""countryId"": ""1814991"", ""fcl"": ""L"", ""population"": 0, ""countryCode"": ""CN"", ""name"": ""Aksai Chin"", ""fclName"": ""parks,area, ..."", ""countryName"": ""China"", ""fcodeName"": ""region"", ""adminName1"": """", ""lat"": ""35.09309"", ""fcode"": ""RGN""}";RGN
127;134;Viet Nam;1562822;"{""adminCode1"": ""00"", ""lng"": ""107.83333"", ""geonameId"": 1562822, ""toponymName"": ""Socialist Republic of Vietnam"", ""countryId"": ""1562822"", ""fcl"": ""A"", ""population"": 95540395, ""countryCode"": ""VN"", ""name"": ""Vietnam"", ""fclName"": ""country, state, region,..."", ""countryName"": ""Vietnam"", ""fcodeName"": ""independent political entity"", ""adminName1"": """", ""lat"": ""16.16667"", ""fcode"": ""PCLI""}";PCLI
128;111;Zambia;895949;"{""adminCode1"": ""00"", ""lng"": ""28.5"", ""geonameId"": 895949, ""toponymName"": ""Republic of Zambia"", ""countryId"": ""895949"", ""fcl"": ""A"", ""population"": 17351822, ""countryCode"": ""ZM"", ""name"": ""Zambia"", ""fclName"": ""country, state, region,..."", ""countryName"": ""Zambia"", ""fcodeName"": ""independent political entity"", ""adminName1"": """", ""lat"": ""-14.33333"", ""fcode"": ""PCLI""}";PCLI
129;33;Mozambique;1036973;"{""adminCode1"": ""00"", ""lng"": ""35"", ""geonameId"": 1036973, ""toponymName"": ""Republic of Mozambique"", ""countryId"": ""1036973"", ""fcl"": ""A"", ""population"": 29495962, ""countryCode"": ""MZ"", ""name"": ""Mozambique"", ""fclName"": ""country, state, region,..."", ""countryName"": ""Mozambique"", ""fcodeName"": ""independent political entity"", ""adminName1"": """", ""lat"": ""-18.25"", ""fcode"": ""PCLI""}";PCLI
130;157;Democratic Republic of the Congo;203312;"{""adminCode1"": ""00"", ""lng"": ""23.5"", ""geonameId"": 203312, ""toponymName"": ""Democratic Republic of the Congo"", ""countryId"": ""203312"", ""fcl"": ""A"", ""population"": 84068091, ""countryCode"": ""CD"", ""name"": ""DR Congo"", ""fclName"": ""country, state, region,..."", ""countryName"": ""DR Congo"", ""fcodeName"": ""independent political entity"", ""adminName1"": """", ""lat"": ""-2.5"", ""fcode"": ""PCLI""}";PCLI
131;200;Papua New Guinea;2088628;"{""adminCode1"": ""00"", ""lng"": ""147"", ""geonameId"": 2088628, ""toponymName"": ""Independent State of Papua New Guinea"", ""countryId"": ""2088628"", ""fcl"": ""A"", ""population"": 8606316, ""countryCode"": ""PG"", ""name"": ""Papua New Guinea"", ""fclName"": ""country, state, region,..."", ""countryName"": ""Papua New Guinea"", ""fcodeName"": ""independent political entity"", ""adminName1"": """", ""lat"": ""-6"", ""fcode"": ""PCLI""}";PCLI
132;160;Liberia;2275384;"{""adminCode1"": ""00"", ""lng"": ""-9.5"", ""geonameId"": 2275384, ""toponymName"": ""Republic of Liberia"", ""countryId"": ""2275384"", ""fcl"": ""A"", ""population"": 4818977, ""countryCode"": ""LR"", ""name"": ""Liberia"", ""fclName"": ""country, state, region,..."", ""countryName"": ""Liberia"", ""fcodeName"": ""independent political entity"", ""adminName1"": """", ""lat"": ""6.5"", ""fcode"": ""PCLI""}";PCLI
133;112;Côte d'Ivoire;2287781;"{""adminCode1"": ""00"", ""lng"": ""-5.5"", ""geonameId"": 2287781, ""toponymName"": ""Republic of C\u00f4te d\u2019Ivoire"", ""countryId"": ""2287781"", ""fcl"": ""A"", ""population"": 25069229, ""countryCode"": ""CI"", ""name"": ""Ivory Coast"", ""fclName"": ""country, state, region,..."", ""countryName"": ""Ivory Coast"", ""fcodeName"": ""independent political entity"", ""adminName1"": """", ""lat"": ""8"", ""fcode"": ""PCLI""}";PCLI
134;206;Peru;3932488;"{""adminCode1"": ""00"", ""lng"": ""-75.25"", ""geonameId"": 3932488, ""toponymName"": ""Republic of Peru"", ""countryId"": ""3932488"", ""fcl"": ""A"", ""population"": 31989256, ""countryCode"": ""PE"", ""name"": ""Peru"", ""fclName"": ""country, state, region,..."", ""countryName"": ""Peru"", ""fcodeName"": ""independent political entity"", ""adminName1"": """", ""lat"": ""-10"", ""fcode"": ""PCLI""}";PCLI
135;113;Guyana;3378535;"{""adminCode1"": ""00"", ""lng"": ""-59"", ""geonameId"": 3378535, ""toponymName"": ""Co-operative Republic of Guyana"", ""countryId"": ""3378535"", ""fcl"": ""A"", ""population"": 779004, ""countryCode"": ""GY"", ""name"": ""Guyana"", ""fclName"": ""country, state, region,..."", ""countryName"": ""Guyana"", ""fcodeName"": ""independent political entity"", ""adminName1"": """", ""lat"": ""5"", ""fcode"": ""PCLI""}";PCLI
136;114;South Georgia and the South Sandwich Islands;3474415;"{""adminCode1"": ""00"", ""lng"": ""-33"", ""geonameId"": 3474415, ""toponymName"": ""South Georgia and the South Sandwich Islands"", ""countryId"": ""3474415"", ""fcl"": ""A"", ""population"": 30, ""countryCode"": ""GS"", ""name"": ""South Georgia and South Sandwich Islands"", ""fclName"": ""country, state, region,..."", ""countryName"": ""South Georgia and South Sandwich Islands"", ""fcodeName"": ""dependent political entity"", ""adminName1"": """", ""lat"": ""-56"", ""fcode"": ""PCLD""}";PCLD
137;115;Ukraine;690791;"{""adminCode1"": ""00"", ""lng"": ""32"", ""geonameId"": 690791, ""toponymName"": ""Ukraine"", ""countryId"": ""690791"", ""fcl"": ""A"", ""population"": 44622516, ""countryCode"": ""UA"", ""name"": ""Ukraine"", ""fclName"": ""country, state, region,..."", ""countryName"": ""Ukraine"", ""fcodeName"": ""independent political entity"", ""adminName1"": """", ""lat"": ""49"", ""fcode"": ""PCLI""}";PCLI
138;116;Fiji;2205218;"{""adminCode1"": ""00"", ""lng"": ""178"", ""geonameId"": 2205218, ""toponymName"": ""Republic of Fiji"", ""countryId"": ""2205218"", ""fcl"": ""A"", ""population"": 883483, ""countryCode"": ""FJ"", ""name"": ""Fiji"", ""fclName"": ""country, state, region,..."", ""countryName"": ""Fiji"", ""fcodeName"": ""independent political entity"", ""adminName1"": """", ""lat"": ""-18"", ""fcode"": ""PCLI""}";PCLI
139;124;Albania;783754;"{""adminCode1"": ""00"", ""lng"": ""20"", ""geonameId"": 783754, ""toponymName"": ""Republic of Albania"", ""countryId"": ""783754"", ""fcl"": ""A"", ""population"": 2866376, ""countryCode"": ""AL"", ""name"": ""Albania"", ""fclName"": ""country, state, region,..."", ""countryName"": ""Albania"", ""fcodeName"": ""independent political entity"", ""adminName1"": """", ""lat"": ""41"", ""fcode"": ""PCLI""}";PCLI
140;105;Algeria;2589581;"{""adminCode1"": ""00"", ""lng"": ""3"", ""geonameId"": 2589581, ""toponymName"": ""People\u2019s Democratic Republic of Algeria"", ""countryId"": ""2589581"", ""fcl"": ""A"", ""population"": 42228429, ""countryCode"": ""DZ"", ""name"": ""Algeria"", ""fclName"": ""country, state, region,..."", ""countryName"": ""Algeria"", ""fcodeName"": ""independent political entity"", ""adminName1"": """", ""lat"": ""28"", ""fcode"": ""PCLI""}";PCLI
141;136;Iceland;2629691;"{""adminCode1"": ""00"", ""lng"": ""-18"", ""geonameId"": 2629691, ""toponymName"": ""Republic of Iceland"", ""countryId"": ""2629691"", ""fcl"": ""A"", ""population"": 353574, ""countryCode"": ""IS"", ""name"": ""Iceland"", ""fclName"": ""country, state, region,..."", ""countryName"": ""Iceland"", ""fcodeName"": ""independent political entity"", ""adminName1"": """", ""lat"": ""65"", ""fcode"": ""PCLI""}";PCLI
142;213;Romania;798549;"{""adminCode1"": ""00"", ""lng"": ""25"", ""geonameId"": 798549, ""toponymName"": ""Rom\u00e2nia"", ""countryId"": ""798549"", ""fcl"": ""A"", ""population"": 19473936, ""countryCode"": ""RO"", ""name"": ""Romania"", ""fclName"": ""country, state, region,..."", ""countryName"": ""Romania"", ""fcodeName"": ""independent political entity"", ""adminName1"": """", ""lat"": ""46"", ""fcode"": ""PCLI""}";PCLI
143;19;Canada;6251999;"{""adminCode1"": ""00"", ""lng"": ""-113.64258"", ""geonameId"": 6251999, ""toponymName"": ""Canada"", ""countryId"": ""6251999"", ""fcl"": ""A"", ""population"": 37058856, ""countryCode"": ""CA"", ""name"": ""Canada"", ""fclName"": ""country, state, region,..."", ""countryName"": ""Canada"", ""fcodeName"": ""independent political entity"", ""adminName1"": """", ""lat"": ""60.10867"", ""fcode"": ""PCLI""}";PCLI
144;198;Germany;2921044;"{""adminCode1"": ""00"", ""lng"": ""10.5"", ""geonameId"": 2921044, ""toponymName"": ""Federal Republic of Germany"", ""countryId"": ""2921044"", ""fcl"": ""A"", ""population"": 82927922, ""countryCode"": ""DE"", ""name"": ""Germany"", ""fclName"": ""country, state, region,..."", ""countryName"": ""Germany"", ""fcodeName"": ""independent political entity"", ""adminName1"": """", ""lat"": ""51.5"", ""fcode"": ""PCLI""}";PCLI
145;127;Belgium;2802361;"{""adminCode1"": ""00"", ""lng"": ""4.5"", ""geonameId"": 2802361, ""toponymName"": ""Kingdom of Belgium"", ""countryId"": ""2802361"", ""fcl"": ""A"", ""population"": 11422068, ""countryCode"": ""BE"", ""name"": ""Belgium"", ""fclName"": ""country, state, region,..."", ""countryName"": ""Belgium"", ""fcodeName"": ""independent political entity"", ""adminName1"": """", ""lat"": ""50.75"", ""fcode"": ""PCLI""}";PCLI
146;175;Panama;3703430;"{""adminCode1"": ""00"", ""lng"": ""-80"", ""geonameId"": 3703430, ""toponymName"": ""Republic of Panama"", ""countryId"": ""3703430"", ""fcl"": ""A"", ""population"": 4176873, ""countryCode"": ""PA"", ""name"": ""Panama"", ""fclName"": ""country, state, region,..."", ""countryName"": ""Panama"", ""fcodeName"": ""independent political entity"", ""adminName1"": """", ""lat"": ""9"", ""fcode"": ""PCLI""}";PCLI
147;137;Taiwan;1668284;"{""adminCode1"": ""00"", ""lng"": ""121"", ""geonameId"": 1668284, ""toponymName"": ""Taiwan"", ""countryId"": ""1668284"", ""fcl"": ""A"", ""population"": 23451837, ""countryCode"": ""TW"", ""name"": ""Taiwan"", ""fclName"": ""country, state, region,..."", ""countryName"": ""Taiwan"", ""fcodeName"": ""independent political entity"", ""adminName1"": """", ""lat"": ""24"", ""fcode"": ""PCLI""}";PCLI
148;194;Montenegro;3194884;"{""adminCode1"": ""00"", ""lng"": ""19.25"", ""geonameId"": 3194884, ""toponymName"": ""Montenegro"", ""countryId"": ""3194884"", ""fcl"": ""A"", ""population"": 622345, ""countryCode"": ""ME"", ""name"": ""Montenegro"", ""fclName"": ""country, state, region,..."", ""countryName"": ""Montenegro"", ""fcodeName"": ""independent political entity"", ""adminName1"": """", ""lat"": ""42.75"", ""fcode"": ""PCLI""}";PCLI
149;139;Netherlands;2750405;"{""adminCode1"": ""00"", ""lng"": ""5.75"", ""geonameId"": 2750405, ""toponymName"": ""Kingdom of the Netherlands"", ""countryId"": ""2750405"", ""fcl"": ""A"", ""population"": 17231017, ""countryCode"": ""NL"", ""name"": ""Netherlands"", ""fclName"": ""country, state, region,..."", ""countryName"": ""Netherlands"", ""fcodeName"": ""independent political entity"", ""adminName1"": """", ""lat"": ""52.25"", ""fcode"": ""PCLI""}";PCLI
150;76;Bahamas;3572887;"{""adminCode1"": ""00"", ""lng"": ""-77.37122"", ""geonameId"": 3572887, ""toponymName"": ""Commonwealth of The Bahamas"", ""countryId"": ""3572887"", ""fcl"": ""A"", ""population"": 385640, ""countryCode"": ""BS"", ""name"": ""Bahamas"", ""fclName"": ""country, state, region,..."", ""countryName"": ""Bahamas"", ""fcodeName"": ""independent political entity"", ""adminName1"": """", ""lat"": ""25.04082"", ""fcode"": ""PCLI""}";PCLI
151;140;Sri Lanka;1227603;"{""adminCode1"": ""00"", ""lng"": ""80.75"", ""geonameId"": 1227603, ""toponymName"": ""Democratic Socialist Republic of Sri Lanka"", ""countryId"": ""1227603"", ""fcl"": ""A"", ""population"": 21670000, ""countryCode"": ""LK"", ""name"": ""Sri Lanka"", ""fclName"": ""country, state, region,..."", ""countryName"": ""Sri Lanka"", ""fcodeName"": ""independent political entity"", ""adminName1"": """", ""lat"": ""7.75"", ""fcode"": ""PCLI""}";PCLI
152;153;Slovenia;3190538;"{""adminCode1"": ""00"", ""lng"": ""15"", ""geonameId"": 3190538, ""toponymName"": ""Republic of Slovenia"", ""countryId"": ""3190538"", ""fcl"": ""A"", ""population"": 2067372, ""countryCode"": ""SI"", ""name"": ""Slovenia"", ""fclName"": ""country, state, region,..."", ""countryName"": ""Slovenia"", ""fcodeName"": ""independent political entity"", ""adminName1"": """", ""lat"": ""46.08333"", ""fcode"": ""PCLI""}";PCLI
153;147;Austria;2782113;"{""adminCode1"": ""00"", ""lng"": ""13.33333"", ""geonameId"": 2782113, ""toponymName"": ""Republic of Austria"", ""countryId"": ""2782113"", ""fcl"": ""A"", ""population"": 8847037, ""countryCode"": ""AT"", ""name"": ""Austria"", ""fclName"": ""country, state, region,..."", ""countryName"": ""Austria"", ""fcodeName"": ""independent political entity"", ""adminName1"": """", ""lat"": ""47.33333"", ""fcode"": ""PCLI""}";PCLI
154;172;Italy;3175395;"{""adminCode1"": ""00"", ""lng"": ""12.83333"", ""geonameId"": 3175395, ""toponymName"": ""Italian Republic"", ""countryId"": ""3175395"", ""fcl"": ""A"", ""population"": 60431283, ""countryCode"": ""IT"", ""name"": ""Italy"", ""fclName"": ""country, state, region,..."", ""countryName"": ""Italy"", ""fcodeName"": ""independent political entity"", ""adminName1"": """", ""lat"": ""42.83333"", ""fcode"": ""PCLI""}";PCLI
155;152;Luxembourg;2960313;"{""adminCode1"": ""00"", ""lng"": ""6.16667"", ""geonameId"": 2960313, ""toponymName"": ""Grand Duchy of Luxembourg"", ""countryId"": ""2960313"", ""fcl"": ""A"", ""population"": 607728, ""countryCode"": ""LU"", ""name"": ""Luxembourg"", ""fclName"": ""country, state, region,..."", ""countryName"": ""Luxembourg"", ""fcodeName"": ""independent political entity"", ""adminName1"": """", ""lat"": ""49.75"", ""fcode"": ""PCLI""}";PCLI
156;158;Latvia;458258;"{""adminCode1"": ""00"", ""lng"": ""25"", ""geonameId"": 458258, ""toponymName"": ""Republic of Latvia"", ""countryId"": ""458258"", ""fcl"": ""A"", ""population"": 1926542, ""countryCode"": ""LV"", ""name"": ""Latvia"", ""fclName"": ""country, state, region,..."", ""countryName"": ""Latvia"", ""fcodeName"": ""independent political entity"", ""adminName1"": """", ""lat"": ""57"", ""fcode"": ""PCLI""}";PCLI
157;135;Cameroon;2233387;"{""adminCode1"": ""00"", ""lng"": ""12.5"", ""geonameId"": 2233387, ""toponymName"": ""Republic of Cameroon"", ""countryId"": ""2233387"", ""fcl"": ""A"", ""population"": 25216237, ""countryCode"": ""CM"", ""name"": ""Cameroon"", ""fclName"": ""country, state, region,..."", ""countryName"": ""Cameroon"", ""fcodeName"": ""independent political entity"", ""adminName1"": """", ""lat"": ""6"", ""fcode"": ""PCLI""}";PCLI
158;159;Jamaica;3489940;"{""adminCode1"": ""00"", ""lng"": ""-77.25"", ""geonameId"": 3489940, ""toponymName"": ""Jamaica"", ""countryId"": ""3489940"", ""fcl"": ""A"", ""population"": 2934855, ""countryCode"": ""JM"", ""name"": ""Jamaica"", ""fclName"": ""country, state, region,..."", ""countryName"": ""Jamaica"", ""fcodeName"": ""independent political entity"", ""adminName1"": """", ""lat"": ""18.16667"", ""fcode"": ""PCLI""}";PCLI
159;174;Slovakia;3057568;"{""adminCode1"": ""00"", ""lng"": ""19.5"", ""geonameId"": 3057568, ""toponymName"": ""Slovak Republic"", ""countryId"": ""3057568"", ""fcl"": ""A"", ""population"": 5447011, ""countryCode"": ""SK"", ""name"": ""Slovakia"", ""fclName"": ""country, state, region,..."", ""countryName"": ""Slovakia"", ""fcodeName"": ""independent political entity"", ""adminName1"": """", ""lat"": ""48.66667"", ""fcode"": ""PCLI""}";PCLI
160;177;Martinique;3570311;"{""adminCode1"": ""00"", ""lng"": ""-61"", ""geonameId"": 3570311, ""toponymName"": ""Martinique"", ""countryId"": ""3570311"", ""fcl"": ""A"", ""population"": 432900, ""countryCode"": ""MQ"", ""name"": ""Martinique"", ""fclName"": ""country, state, region,..."", ""countryName"": ""Martinique"", ""fcodeName"": ""dependent political entity"", ""adminName1"": """", ""lat"": ""14.66667"", ""fcode"": ""PCLD""}";PCLD
161;181;New Zealand;2186224;"{""adminCode1"": ""00"", ""lng"": ""174"", ""geonameId"": 2186224, ""toponymName"": ""New Zealand"", ""countryId"": ""2186224"", ""fcl"": ""A"", ""population"": 4885500, ""countryCode"": ""NZ"", ""name"": ""New Zealand"", ""fclName"": ""country, state, region,..."", ""countryName"": ""New Zealand"", ""fcodeName"": ""independent political entity"", ""adminName1"": """", ""lat"": ""-42"", ""fcode"": ""PCLI""}";PCLI
162;8;Faroe Islands;2622320;"{""adminCode1"": ""00"", ""lng"": ""-7"", ""geonameId"": 2622320, ""toponymName"": ""Faroe Islands"", ""countryId"": ""2622320"", ""fcl"": ""A"", ""population"": 48497, ""countryCode"": ""FO"", ""name"": ""Faroe Islands"", ""fclName"": ""country, state, region,..."", ""countryName"": ""Faroe Islands"", ""fcodeName"": ""dependent political entity"", ""adminName1"": """", ""lat"": ""62"", ""fcode"": ""PCLD""}";PCLD
163;94;Gabon;2400553;"{""adminCode1"": ""00"", ""lng"": ""11.75"", ""geonameId"": 2400553, ""toponymName"": ""Gabonese Republic"", ""countryId"": ""2400553"", ""fcl"": ""A"", ""population"": 2119275, ""countryCode"": ""GA"", ""name"": ""Gabon"", ""fclName"": ""country, state, region,..."", ""countryName"": ""Gabon"", ""fcodeName"": ""independent political entity"", ""adminName1"": """", ""lat"": ""-1"", ""fcode"": ""PCLI""}";PCLI
164;170;Solomon Islands;2103350;"{""adminCode1"": ""00"", ""lng"": ""159"", ""geonameId"": 2103350, ""toponymName"": ""Solomon Islands"", ""countryId"": ""2103350"", ""fcl"": ""A"", ""population"": 652858, ""countryCode"": ""SB"", ""name"": ""Solomon Islands"", ""fclName"": ""country, state, region,..."", ""countryName"": ""Solomon Islands"", ""fcodeName"": ""independent political entity"", ""adminName1"": """", ""lat"": ""-8"", ""fcode"": ""PCLI""}";PCLI
165;51;Madagascar;1062947;"{""adminCode1"": ""00"", ""lng"": ""47"", ""geonameId"": 1062947, ""toponymName"": ""Republic of Madagascar"", ""countryId"": ""1062947"", ""fcl"": ""A"", ""population"": 26262368, ""countryCode"": ""MG"", ""name"": ""Madagascar"", ""fclName"": ""country, state, region,..."", ""countryName"": ""Madagascar"", ""fcodeName"": ""independent political entity"", ""adminName1"": """", ""lat"": ""-20"", ""fcode"": ""PCLI""}";PCLI
166;132;Cambodia;1831722;"{""adminCode1"": ""00"", ""lng"": ""105"", ""geonameId"": 1831722, ""toponymName"": ""Kingdom of Cambodia"", ""countryId"": ""1831722"", ""fcl"": ""A"", ""population"": 16249798, ""countryCode"": ""KH"", ""name"": ""Cambodia"", ""fclName"": ""country, state, region,..."", ""countryName"": ""Cambodia"", ""fcodeName"": ""independent political entity"", ""adminName1"": """", ""lat"": ""13"", ""fcode"": ""PCLI""}";PCLI
167;192;Colombia;3686110;"{""adminCode1"": ""00"", ""lng"": ""-73.25"", ""geonameId"": 3686110, ""toponymName"": ""Republic of Colombia"", ""countryId"": ""3686110"", ""fcl"": ""A"", ""population"": 49648685, ""countryCode"": ""CO"", ""name"": ""Colombia"", ""fclName"": ""country, state, region,..."", ""countryName"": ""Colombia"", ""fcodeName"": ""independent political entity"", ""adminName1"": """", ""lat"": ""4"", ""fcode"": ""PCLI""}";PCLI
168;211;Vanuatu;2134431;"{""adminCode1"": ""00"", ""lng"": ""167.5"", ""geonameId"": 2134431, ""toponymName"": ""Republic of Vanuatu"", ""countryId"": ""2134431"", ""fcl"": ""A"", ""population"": 292680, ""countryCode"": ""VU"", ""name"": ""Vanuatu"", ""fclName"": ""country, state, region,..."", ""countryName"": ""Vanuatu"", ""fcodeName"": ""independent political entity"", ""adminName1"": """", ""lat"": ""-16.3333"", ""fcode"": ""PCLI""}";PCLI
169;220;Armenia;174982;"{""adminCode1"": ""00"", ""lng"": ""45"", ""geonameId"": 174982, ""toponymName"": ""Republic of Armenia"", ""countryId"": ""174982"", ""fcl"": ""A"", ""population"": 2951776, ""countryCode"": ""AM"", ""name"": ""Armenia"", ""fclName"": ""country, state, region,..."", ""countryName"": ""Armenia"", ""fcodeName"": ""independent political entity"", ""adminName1"": """", ""lat"": ""40.25"", ""fcode"": ""PCLI""}";PCLI
170;80;Niger;2440476;"{""adminCode1"": ""00"", ""lng"": ""9"", ""geonameId"": 2440476, ""toponymName"": ""Republic of Niger"", ""countryId"": ""2440476"", ""fcl"": ""A"", ""population"": 22442948, ""countryCode"": ""NE"", ""name"": ""Niger"", ""fclName"": ""country, state, region,..."", ""countryName"": ""Niger"", ""fcodeName"": ""independent political entity"", ""adminName1"": """", ""lat"": ""18"", ""fcode"": ""PCLI""}";PCLI
171;90;Mauritania;2378080;"{""adminCode1"": ""00"", ""lng"": ""-10.5"", ""geonameId"": 2378080, ""toponymName"": ""Islamic Republic of Mauritania"", ""countryId"": ""2378080"", ""fcl"": ""A"", ""population"": 4403319, ""countryCode"": ""MR"", ""name"": ""Mauritania"", ""fclName"": ""country, state, region,..."", ""countryName"": ""Mauritania"", ""fcodeName"": ""independent political entity"", ""adminName1"": """", ""lat"": ""20.25"", ""fcode"": ""PCLI""}";PCLI
172;118;Togo;2363686;"{""adminCode1"": ""00"", ""lng"": ""1.08333"", ""geonameId"": 2363686, ""toponymName"": ""Togolese Republic"", ""countryId"": ""2363686"", ""fcl"": ""A"", ""population"": 7889094, ""countryCode"": ""TG"", ""name"": ""Togo"", ""fclName"": ""country, state, region,..."", ""countryName"": ""Togo"", ""fcodeName"": ""independent political entity"", ""adminName1"": """", ""lat"": ""8.66667"", ""fcode"": ""PCLI""}";PCLI
173;120;Morocco;2542007;"{""adminCode1"": ""00"", ""lng"": ""-10"", ""geonameId"": 2542007, ""toponymName"": ""Kingdom of Morocco"", ""countryId"": ""2542007"", ""fcl"": ""A"", ""population"": 36029138, ""countryCode"": ""MA"", ""name"": ""Morocco"", ""fclName"": ""country, state, region,..."", ""countryName"": ""Morocco"", ""fcodeName"": ""independent political entity"", ""adminName1"": """", ""lat"": ""28.5"", ""fcode"": ""PCLI""}";PCLI
174;150;Burundi;433561;"{""adminCode1"": ""00"", ""lng"": ""30"", ""geonameId"": 433561, ""toponymName"": ""Republic of Burundi"", ""countryId"": ""433561"", ""fcl"": ""A"", ""population"": 11175378, ""countryCode"": ""BI"", ""name"": ""Burundi"", ""fclName"": ""country, state, region,..."", ""countryName"": ""Burundi"", ""fcodeName"": ""independent political entity"", ""adminName1"": """", ""lat"": ""-3.5"", ""fcode"": ""PCLI""}";PCLI
175;14;Sao Tome and Principe;2410758;"{""adminCode1"": ""00"", ""lng"": ""7"", ""geonameId"": 2410758, ""toponymName"": ""Sao Tome and Principe"", ""countryId"": ""2410758"", ""fcl"": ""A"", ""population"": 197700, ""countryCode"": ""ST"", ""name"": ""S\u00e3o Tom\u00e9 and Pr\u00edncipe"", ""fclName"": ""country, state, region,..."", ""countryName"": ""S\u00e3o Tom\u00e9 and Pr\u00edncipe"", ""fcodeName"": ""independent political entity"", ""adminName1"": """", ""lat"": ""1"", ""fcode"": ""PCLI""}";PCLI
176;179;Rwanda;49518;"{""adminCode1"": ""00"", ""lng"": ""30"", ""geonameId"": 49518, ""toponymName"": ""Republic of Rwanda"", ""countryId"": ""49518"", ""fcl"": ""A"", ""population"": 12301939, ""countryCode"": ""RW"", ""name"": ""Rwanda"", ""fclName"": ""country, state, region,..."", ""countryName"": ""Rwanda"", ""fcodeName"": ""independent political entity"", ""adminName1"": """", ""lat"": ""-2"", ""fcode"": ""PCLI""}";PCLI
177;180;Guinea-Bissau;2374775;"{""adminCode1"": ""11"", ""lng"": ""-15.59767"", ""geonameId"": 2374775, ""toponymName"": ""Bissau"", ""countryId"": ""2372248"", ""fcl"": ""P"", ""population"": 388028, ""countryCode"": ""GW"", ""name"": ""Bissau"", ""fclName"": ""city, village,..."", ""adminCodes1"": {""ISO3166_2"": ""BS""}, ""countryName"": ""Guinea-Bissau"", ""fcodeName"": ""capital of a political entity"", ""adminName1"": ""Bissau"", ""lat"": ""11.86357"", ""fcode"": ""PPLC""}";PPLC
178;2;Belarus;630336;"{""adminCode1"": ""00"", ""lng"": ""28"", ""geonameId"": 630336, ""toponymName"": ""Republic of Belarus"", ""countryId"": ""630336"", ""fcl"": ""A"", ""population"": 9485386, ""countryCode"": ""BY"", ""name"": ""Belarus"", ""fclName"": ""country, state, region,..."", ""countryName"": ""Belarus"", ""fcodeName"": ""independent political entity"", ""adminName1"": """", ""lat"": ""53"", ""fcode"": ""PCLI""}";PCLI
179;81;Myanmar;1327865;"{""adminCode1"": ""00"", ""lng"": ""96"", ""geonameId"": 1327865, ""toponymName"": ""Union of Burma"", ""countryId"": ""1327865"", ""fcl"": ""A"", ""population"": 53708395, ""countryCode"": ""MM"", ""name"": ""Myanmar"", ""fclName"": ""country, state, region,..."", ""countryName"": ""Myanmar"", ""fcodeName"": ""independent political entity"", ""adminName1"": """", ""lat"": ""21"", ""fcode"": ""PCLI""}";PCLI
180;78;Iraq;99237;"{""adminCode1"": ""00"", ""lng"": ""44"", ""geonameId"": 99237, ""toponymName"": ""Republic of Iraq"", ""countryId"": ""99237"", ""fcl"": ""A"", ""population"": 38433600, ""countryCode"": ""IQ"", ""name"": ""Iraq"", ""fclName"": ""country, state, region,..."", ""countryName"": ""Iraq"", ""fcodeName"": ""independent political entity"", ""adminName1"": """", ""lat"": ""33"", ""fcode"": ""PCLI""}";PCLI
181;68;Haiti;3723988;"{""adminCode1"": ""00"", ""lng"": ""-72.29616"", ""geonameId"": 3723988, ""toponymName"": ""Republic of Haiti"", ""countryId"": ""3723988"", ""fcl"": ""A"", ""population"": 11123176, ""countryCode"": ""HT"", ""name"": ""Haiti"", ""fclName"": ""country, state, region,..."", ""countryName"": ""Haiti"", ""fcodeName"": ""independent political entity"", ""adminName1"": """", ""lat"": ""19.07582"", ""fcode"": ""PCLI""}";PCLI
182;69;Spain;2510769;"{""adminCode1"": ""00"", ""lng"": ""-4"", ""geonameId"": 2510769, ""toponymName"": ""Kingdom of Spain"", ""countryId"": ""2510769"", ""fcl"": ""A"", ""population"": 46723749, ""countryCode"": ""ES"", ""name"": ""Spain"", ""fclName"": ""country, state, region,..."", ""countryName"": ""Spain"", ""fcodeName"": ""independent political entity"", ""adminName1"": """", ""lat"": ""40"", ""fcode"": ""PCLI""}";PCLI
183;77;Botswana;933860;"{""adminCode1"": ""00"", ""lng"": ""24"", ""geonameId"": 933860, ""toponymName"": ""Republic of Botswana"", ""countryId"": ""933860"", ""fcl"": ""A"", ""population"": 2254126, ""countryCode"": ""BW"", ""name"": ""Botswana"", ""fclName"": ""country, state, region,..."", ""countryName"": ""Botswana"", ""fcodeName"": ""independent political entity"", ""adminName1"": """", ""lat"": ""-22"", ""fcode"": ""PCLI""}";PCLI
184;125;Sweden;2661886;"{""adminCode1"": ""00"", ""lng"": ""15"", ""geonameId"": 2661886, ""toponymName"": ""Kingdom of Sweden"", ""countryId"": ""2661886"", ""fcl"": ""A"", ""population"": 10183175, ""countryCode"": ""SE"", ""name"": ""Sweden"", ""fclName"": ""country, state, region,..."", ""countryName"": ""Sweden"", ""fcodeName"": ""independent political entity"", ""adminName1"": """", ""lat"": ""62"", ""fcode"": ""PCLI""}";PCLI
185;138;Malaysia;1733045;"{""adminCode1"": ""00"", ""lng"": ""112.5"", ""geonameId"": 1733045, ""toponymName"": ""Malaysia"", ""countryId"": ""1733045"", ""fcl"": ""A"", ""population"": 31528585, ""countryCode"": ""MY"", ""name"": ""Malaysia"", ""fclName"": ""country, state, region,..."", ""countryName"": ""Malaysia"", ""fcodeName"": ""independent political entity"", ""adminName1"": """", ""lat"": ""2.5"", ""fcode"": ""PCLI""}";PCLI
186;92;Angola;3351879;"{""adminCode1"": ""00"", ""lng"": ""18.5"", ""geonameId"": 3351879, ""toponymName"": ""Republic of Angola"", ""countryId"": ""3351879"", ""fcl"": ""A"", ""population"": 30809762, ""countryCode"": ""AO"", ""name"": ""Angola"", ""fclName"": ""country, state, region,..."", ""countryName"": ""Angola"", ""fcodeName"": ""independent political entity"", ""adminName1"": """", ""lat"": ""-12.5"", ""fcode"": ""PCLI""}";PCLI
187;79;Egypt;357994;"{""adminCode1"": ""00"", ""lng"": ""30"", ""geonameId"": 357994, ""toponymName"": ""Arab Republic of Egypt"", ""countryId"": ""357994"", ""fcl"": ""A"", ""population"": 98423595, ""countryCode"": ""EG"", ""name"": ""Egypt"", ""fclName"": ""country, state, region,..."", ""countryName"": ""Egypt"", ""fcodeName"": ""independent political entity"", ""adminName1"": """", ""lat"": ""27"", ""fcode"": ""PCLI""}";PCLI
188;31;Tonga;4032283;"{""adminCode1"": ""00"", ""lng"": ""-175"", ""geonameId"": 4032283, ""toponymName"": ""Kingdom of Tonga"", ""countryId"": ""4032283"", ""fcl"": ""A"", ""population"": 103197, ""countryCode"": ""TO"", ""name"": ""Tonga"", ""fclName"": ""country, state, region,..."", ""countryName"": ""Tonga"", ""fcodeName"": ""independent political entity"", ""adminName1"": """", ""lat"": ""-20"", ""fcode"": ""PCLI""}";PCLI
189;9;Saint Pierre et Miquelon;3424932;"{""adminCode1"": ""00"", ""lng"": ""-56.33333"", ""geonameId"": 3424932, ""toponymName"": ""Saint Pierre and Miquelon"", ""countryId"": ""3424932"", ""fcl"": ""A"", ""population"": 7012, ""countryCode"": ""PM"", ""name"": ""Saint Pierre and Miquelon"", ""fclName"": ""country, state, region,..."", ""countryName"": ""Saint Pierre and Miquelon"", ""fcodeName"": ""dependent political entity"", ""adminName1"": """", ""lat"": ""46.83333"", ""fcode"": ""PCLD""}";PCLD
190;24;Grenada;3580239;"{""adminCode1"": ""00"", ""lng"": ""-61.66667"", ""geonameId"": 3580239, ""toponymName"": ""Grenada"", ""countryId"": ""3580239"", ""fcl"": ""A"", ""population"": 111454, ""countryCode"": ""GD"", ""name"": ""Grenada"", ""fclName"": ""country, state, region,..."", ""countryName"": ""Grenada"", ""fcodeName"": ""independent political entity"", ""adminName1"": """", ""lat"": ""12.11667"", ""fcode"": ""PCLI""}";PCLI
191;88;South Sudan;7909807;"{""adminCode1"": ""00"", ""lng"": ""30"", ""geonameId"": 7909807, ""toponymName"": ""South Sudan"", ""countryId"": ""7909807"", ""fcl"": ""A"", ""population"": 8260490, ""countryCode"": ""SS"", ""name"": ""South Sudan"", ""fclName"": ""country, state, region,..."", ""countryName"": ""South Sudan"", ""fcodeName"": ""independent political entity"", ""adminName1"": """", ""lat"": ""7.5"", ""fcode"": ""PCLI""}";PCLI
192;221;Syrian Arab Republic;163843;"{""adminCode1"": ""00"", ""lng"": ""38"", ""geonameId"": 163843, ""toponymName"": ""Syrian Arab Republic"", ""countryId"": ""163843"", ""fcl"": ""A"", ""population"": 16906283, ""countryCode"": ""SY"", ""name"": ""Syria"", ""fclName"": ""country, state, region,..."", ""countryName"": ""Syria"", ""fcodeName"": ""independent political entity"", ""adminName1"": """", ""lat"": ""35"", ""fcode"": ""PCLI""}";PCLI
193;215;Kuril islands;2131689;"{""adminCode1"": ""64"", ""lng"": ""152.08333"", ""geonameId"": 2131689, ""toponymName"": ""Kuril Islands"", ""countryId"": ""2017370"", ""fcl"": ""T"", ""population"": 18000, ""countryCode"": ""RU"", ""name"": ""Kuril Islands"", ""fclName"": ""mountain,hill,rock,... "", ""adminCodes1"": {""ISO3166_2"": ""SAK""}, ""countryName"": ""Russia"", ""fcodeName"": ""islands"", ""adminName1"": ""Sakhalin Oblast"", ""lat"": ""47"", ""fcode"": ""ISLS""}";ISLS
194;35;Cuba;3562981;"{""adminCode1"": ""00"", ""lng"": ""-79.5"", ""geonameId"": 3562981, ""toponymName"": ""Republic of Cuba"", ""countryId"": ""3562981"", ""fcl"": ""A"", ""population"": 11338138, ""countryCode"": ""CU"", ""name"": ""Cuba"", ""fclName"": ""country, state, region,..."", ""countryName"": ""Cuba"", ""fcodeName"": ""independent political entity"", ""adminName1"": """", ""lat"": ""22"", ""fcode"": ""PCLI""}";PCLI
195;64;Antigua and Barbuda;3576396;"{""adminCode1"": ""00"", ""lng"": ""-61.8"", ""geonameId"": 3576396, ""toponymName"": ""Antigua and Barbuda"", ""countryId"": ""3576396"", ""fcl"": ""A"", ""population"": 96286, ""countryCode"": ""AG"", ""name"": ""Antigua and Barbuda"", ""fclName"": ""country, state, region,..."", ""countryName"": ""Antigua and Barbuda"", ""fcodeName"": ""independent political entity"", ""adminName1"": """", ""lat"": ""17.05"", ""fcode"": ""PCLI""}";PCLI
196;67;Afghanistan;1149361;"{""adminCode1"": ""00"", ""lng"": ""66"", ""geonameId"": 1149361, ""toponymName"": ""Islamic Republic of Afghanistan"", ""countryId"": ""1149361"", ""fcl"": ""A"", ""population"": 37172386, ""countryCode"": ""AF"", ""name"": ""Afghanistan"", ""fclName"": ""country, state, region,..."", ""countryName"": ""Afghanistan"", ""fcodeName"": ""independent political entity"", ""adminName1"": """", ""lat"": ""33"", ""fcode"": ""PCLI""}";PCLI
197;45;Netherlands Antilles;-1;"""-1""";
198;190;Nepal;1282988;"{""adminCode1"": ""00"", ""lng"": ""84"", ""geonameId"": 1282988, ""toponymName"": ""Nepal"", ""countryId"": ""1282988"", ""fcl"": ""A"", ""population"": 28087871, ""countryCode"": ""NP"", ""name"": ""Nepal"", ""fclName"": ""country, state, region,..."", ""countryName"": ""Nepal"", ""fcodeName"": ""independent political entity"", ""adminName1"": """", ""lat"": ""28"", ""fcode"": ""PCLI""}";PCLI
199;75;West Bank;285153;"{""adminCode1"": ""WE"", ""lng"": ""35.25"", ""geonameId"": 285153, ""toponymName"": ""West Bank"", ""countryId"": ""6254930"", ""fcl"": ""A"", ""population"": 2771681, ""countryCode"": ""PS"", ""name"": ""West Bank"", ""fclName"": ""country, state, region,..."", ""adminCodes1"": {}, ""countryName"": ""Palestine"", ""fcodeName"": ""first-order administrative division"", ""adminName1"": ""West Bank"", ""lat"": ""31.66667"", ""fcode"": ""ADM1""}";ADM1
200;162;Portugal;2264397;"{""adminCode1"": ""00"", ""lng"": ""-8.13057"", ""geonameId"": 2264397, ""toponymName"": ""Portuguese Republic"", ""countryId"": ""2264397"", ""fcl"": ""A"", ""population"": 10281762, ""countryCode"": ""PT"", ""name"": ""Portugal"", ""fclName"": ""country, state, region,..."", ""countryName"": ""Portugal"", ""fcodeName"": ""independent political entity"", ""adminName1"": """", ""lat"": ""39.6945"", ""fcode"": ""PCLI""}";PCLI
201;122;Turkmenistan;1218197;"{""adminCode1"": ""00"", ""lng"": ""59.66667"", ""geonameId"": 1218197, ""toponymName"": ""Turkmenistan"", ""countryId"": ""1218197"", ""fcl"": ""A"", ""population"": 5850908, ""countryCode"": ""TM"", ""name"": ""Turkmenistan"", ""fclName"": ""country, state, region,..."", ""countryName"": ""Turkmenistan"", ""fcodeName"": ""independent political entity"", ""adminName1"": """", ""lat"": ""39.75"", ""fcode"": ""PCLI""}";PCLI
202;48;Kuwait;285570;"{""adminCode1"": ""00"", ""lng"": ""47.75"", ""geonameId"": 285570, ""toponymName"": ""State of Kuwait"", ""countryId"": ""285570"", ""fcl"": ""A"", ""population"": 4137309, ""countryCode"": ""KW"", ""name"": ""Kuwait"", ""fclName"": ""country, state, region,..."", ""countryName"": ""Kuwait"", ""fcodeName"": ""independent political entity"", ""adminName1"": """", ""lat"": ""29.5"", ""fcode"": ""PCLI""}";PCLI
203;167;Ireland;2963597;"{""adminCode1"": ""00"", ""lng"": ""-8"", ""geonameId"": 2963597, ""toponymName"": ""Ireland"", ""countryId"": ""2963597"", ""fcl"": ""A"", ""population"": 4853506, ""countryCode"": ""IE"", ""name"": ""Ireland"", ""fclName"": ""country, state, region,..."", ""countryName"": ""Ireland"", ""fcodeName"": ""independent political entity"", ""adminName1"": """", ""lat"": ""53"", ""fcode"": ""PCLI""}";PCLI
204;10;Saint Lucia;3576468;"{""adminCode1"": ""00"", ""lng"": ""-60.96667"", ""geonameId"": 3576468, ""toponymName"": ""Saint Lucia"", ""countryId"": ""3576468"", ""fcl"": ""A"", ""population"": 181889, ""countryCode"": ""LC"", ""name"": ""Saint Lucia"", ""fclName"": ""country, state, region,..."", ""countryName"": ""Saint Lucia"", ""fcodeName"": ""independent political entity"", ""adminName1"": """", ""lat"": ""13.88333"", ""fcode"": ""PCLI""}";PCLI
205;187;Ma'tan al-Sarra;-1;"""-1""";
206;37;Niue;4036232;"{""adminCode1"": ""00"", ""lng"": ""-169.86667"", ""geonameId"": 4036232, ""toponymName"": ""Niue"", ""countryId"": ""4036232"", ""fcl"": ""A"", ""population"": 2166, ""countryCode"": ""NU"", ""name"": ""Niue"", ""fclName"": ""country, state, region,..."", ""countryName"": ""Niue"", ""fcodeName"": ""semi-independent political entity"", ""adminName1"": """", ""lat"": ""-19.03333"", ""fcode"": ""PCLS""}";PCLS
207;12;Belize;3582678;"{""adminCode1"": ""00"", ""lng"": ""-88.75"", ""geonameId"": 3582678, ""toponymName"": ""Belize"", ""countryId"": ""3582678"", ""fcl"": ""A"", ""population"": 383071, ""countryCode"": ""BZ"", ""name"": ""Belize"", ""fclName"": ""country, state, region,..."", ""countryName"": ""Belize"", ""fcodeName"": ""independent political entity"", ""adminName1"": """", ""lat"": ""17.25"", ""fcode"": ""PCLI""}";PCLI
208;86;Samoa;4034894;"{""adminCode1"": ""00"", ""lng"": ""-172.13333"", ""geonameId"": 4034894, ""toponymName"": ""Independent State of Samoa"", ""countryId"": ""4034894"", ""fcl"": ""A"", ""population"": 196130, ""countryCode"": ""WS"", ""name"": ""Samoa"", ""fclName"": ""country, state, region,..."", ""countryName"": ""Samoa"", ""fcodeName"": ""independent political entity"", ""adminName1"": """", ""lat"": ""-13.8"", ""fcode"": ""PCLI""}";PCLI
209;71;French Southern and Antarctic Territories;1546748;"{""adminCode1"": ""00"", ""lng"": ""67"", ""geonameId"": 1546748, ""toponymName"": ""French Southern and Antarctic Lands"", ""countryId"": ""1546748"", ""fcl"": ""A"", ""population"": 140, ""countryCode"": ""TF"", ""name"": ""French Southern Territories"", ""fclName"": ""country, state, region,..."", ""countryName"": ""French Southern Territories"", ""fcodeName"": ""section of independent political entity"", ""adminName1"": """", ""lat"": ""-43"", ""fcode"": ""PCLIX""}";PCLIX
210;131;Gambia;2413451;"{""adminCode1"": ""00"", ""lng"": ""-15.5"", ""geonameId"": 2413451, ""toponymName"": ""Gambia"", ""countryId"": ""2413451"", ""fcl"": ""A"", ""population"": 2280102, ""countryCode"": ""GM"", ""name"": ""The Gambia"", ""fclName"": ""country, state, region,..."", ""countryName"": ""The Gambia"", ""fcodeName"": ""independent political entity"", ""adminName1"": """", ""lat"": ""13.5"", ""fcode"": ""PCLI""}";PCLI
211;5;United States of America;6252001;"{""adminCode1"": ""00"", ""lng"": ""-98.5"", ""geonameId"": 6252001, ""toponymName"": ""United States"", ""countryId"": ""6252001"", ""fcl"": ""A"", ""population"": 327167434, ""countryCode"": ""US"", ""name"": ""United States"", ""fclName"": ""country, state, region,..."", ""countryName"": ""United States"", ""fcodeName"": ""independent political entity"", ""adminName1"": """", ""lat"": ""39.76"", ""fcode"": ""PCLI""}";PCLI
212;208;Australia;2077456;"{""adminCode1"": ""00"", ""lng"": ""135"", ""geonameId"": 2077456, ""toponymName"": ""Commonwealth of Australia"", ""countryId"": ""2077456"", ""fcl"": ""A"", ""population"": 24992369, ""countryCode"": ""AU"", ""name"": ""Australia"", ""fclName"": ""country, state, region,..."", ""countryName"": ""Australia"", ""fcodeName"": ""independent political entity"", ""adminName1"": """", ""lat"": ""-25"", ""fcode"": ""PCLI""}";PCLI
213;40;Malta;2562770;"{""adminCode1"": ""00"", ""lng"": ""14.43333"", ""geonameId"": 2562770, ""toponymName"": ""Republic of Malta"", ""countryId"": ""2562770"", ""fcl"": ""A"", ""population"": 483530, ""countryCode"": ""MT"", ""name"": ""Malta"", ""fclName"": ""country, state, region,..."", ""countryName"": ""Malta"", ""fcodeName"": ""independent political entity"", ""adminName1"": """", ""lat"": ""35.91667"", ""fcode"": ""PCLI""}";PCLI
214;121;Tunisia;2464470;"{""adminCode1"": ""36"", ""lng"": ""10.16579"", ""geonameId"": 2464470, ""toponymName"": ""Tunis"", ""countryId"": ""2464461"", ""fcl"": ""P"", ""population"": 693210, ""countryCode"": ""TN"", ""name"": ""Tunis"", ""fclName"": ""city, village,..."", ""adminCodes1"": {""ISO3166_2"": ""11""}, ""countryName"": ""Tunisia"", ""fcodeName"": ""capital of a political entity"", ""adminName1"": ""T\u016bnis"", ""lat"": ""36.81897"", ""fcode"": ""PPLC""}";PPLC
215;203;Brunei Darussalam;1820814;"{""adminCode1"": ""00"", ""lng"": ""114.66667"", ""geonameId"": 1820814, ""toponymName"": ""Brunei Darussalam"", ""countryId"": ""1820814"", ""fcl"": ""A"", ""population"": 428962, ""countryCode"": ""BN"", ""name"": ""Brunei"", ""fclName"": ""country, state, region,..."", ""countryName"": ""Brunei"", ""fcodeName"": ""independent political entity"", ""adminName1"": """", ""lat"": ""4.5"", ""fcode"": ""PCLI""}";PCLI
216;18;Cayman Islands;3580718;"{""adminCode1"": ""00"", ""lng"": ""-80.66667"", ""geonameId"": 3580718, ""toponymName"": ""Cayman Islands"", ""countryId"": ""3580718"", ""fcl"": ""A"", ""population"": 64174, ""countryCode"": ""KY"", ""name"": ""Cayman Islands"", ""fclName"": ""country, state, region,..."", ""countryName"": ""Cayman Islands"", ""fcodeName"": ""dependent political entity"", ""adminName1"": """", ""lat"": ""19.5"", ""fcode"": ""PCLD""}";PCLD
217;36;Isle of Man;3042225;"{""adminCode1"": ""00"", ""lng"": ""-4.5"", ""geonameId"": 3042225, ""toponymName"": ""Isle of Man"", ""countryId"": ""3042225"", ""fcl"": ""A"", ""population"": 84077, ""countryCode"": ""IM"", ""name"": ""Isle of Man"", ""fclName"": ""country, state, region,..."", ""countryName"": ""Isle of Man"", ""fcodeName"": ""political entity"", ""adminName1"": """", ""lat"": ""54.25"", ""fcode"": ""PCL""}";PCL
218;83;Ecuador;3658394;"{""adminCode1"": ""00"", ""lng"": ""-78.25"", ""geonameId"": 3658394, ""toponymName"": ""Republic of Ecuador"", ""countryId"": ""3658394"", ""fcl"": ""A"", ""population"": 17084357, ""countryCode"": ""EC"", ""name"": ""Ecuador"", ""fclName"": ""country, state, region,..."", ""countryName"": ""Ecuador"", ""fcodeName"": ""independent political entity"", ""adminName1"": """", ""lat"": ""-1.25"", ""fcode"": ""PCLI""}";PCLI
219;178;Paraguay;3437598;"{""adminCode1"": ""00"", ""lng"": ""-58"", ""geonameId"": 3437598, ""toponymName"": ""Republic of Paraguay"", ""countryId"": ""3437598"", ""fcl"": ""A"", ""population"": 6956071, ""countryCode"": ""PY"", ""name"": ""Paraguay"", ""fclName"": ""country, state, region,..."", ""countryName"": ""Paraguay"", ""fcodeName"": ""independent political entity"", ""adminName1"": """", ""lat"": ""-23.33333"", ""fcode"": ""PCLI""}";PCLI
220;11;Saint Vincent and the Grenadines;3577815;"{""adminCode1"": ""00"", ""lng"": ""-61.2"", ""geonameId"": 3577815, ""toponymName"": ""Saint Vincent and the Grenadines"", ""countryId"": ""3577815"", ""fcl"": ""A"", ""population"": 110211, ""countryCode"": ""VC"", ""name"": ""St Vincent and Grenadines"", ""fclName"": ""country, state, region,..."", ""countryName"": ""St Vincent and Grenadines"", ""fcodeName"": ""independent political entity"", ""adminName1"": """", ""lat"": ""13.08333"", ""fcode"": ""PCLI""}";PCLI
